GF DoITT Submitted to CB (A),Site ID,Latitude,Longitude,Borough,Zoning,Council District,Community Board,Street Address,Cross_Street 1,Cross_Street 2,Corner_location,Postcode,BID,Site in Business Improvement District (BID)?,Link In Historic District,NTA,GF Permit_Appl_Id,DoITT: DoITT NTP Issued (A),GF CB Comment Period Ends (A),DoITT: GF DoITT Submitted to CB (A),BIN,BBL,Census Tract,Location 1,Legacy ID,Site Type,Initial Submission (A),Final Submission (A)
08/15/2018,si-01-GF55081,40.64369,-74.07643,Staten Island,C4-2,49,501,36 RICHMOND TERRACE,WALL STREET,SCHUYLER STREET,NE,10301,,No,0,West New Brighton-New Brighton-St. George,82656,,10/14/2018,08/14/2018,5000073,5000070086,5000300,"(40.6436862, -74.07642539)",LINK-025481,New Site,06/29/2018,
08/15/2018,si-01-GF55080,40.64170,-74.07705,Staten Island,C4-2,49,501,26 CENTRAL AVENUE,HYATT STREET,SLOSSON TERRACE,NW,10301,,No,0,West New Brighton-New Brighton-St. George,82653,,10/14/2018,08/14/2018,5000030,5000060021,5000300,"(40.64170058516458, -74.07704509343239)",LINK-025480,New Site,06/28/2018,
08/15/2018,si-01-GF55103,40.63866,-74.07589,Staten Island,C4-2,49,501,150 BAY STREET,CENTRAL AVENUE,VICTORY BOULEVARD,MIDBLOCK,10301,,No,0,West New Brighton-New Brighton-St. George,82651,,10/14/2018,08/14/2018,5000021,5000010021,5000300,"(40.63865776812222, -74.07589397882975)",LINK-025503,New Site,08/10/2018,
01/10/2018,bk-17-GF33566,40.65072,-73.94999,Brooklyn,C1-3,40,317,2846 CHURCH AVENUE,NOSTRAND AVENUE,LLOYD STREET,SW,11226,,No,0,Erasmus,82326,,03/11/2018,12/18/2017,3336222,3051050039,3082400,"(40.65072103, -73.94999324)",LINK-024257,New Site,09/25/2017,
03/09/2018,BX-02-GF22192,40.82211,-73.89711,Bronx,C2-4,17,202,937 WESTCHESTER AVENUE,INTERVALE AVENUE,ROGERS PLACE,NW,10459,,No,0,Longwood,82495,,05/08/2018,12/06/2017,2005390,2026990060,2012901,"(40.82210735, -73.89710558)",LINK-024305,New Site,11/08/2017,
03/09/2018,BX-02-GF22195,40.82450,-73.89289,Bronx,C1-4,17,202,1031 WESTCHESTER AVENUE,EAST 165 STREET,SIMPSON STREET,NE,10459,Southern Boulevard,Yes,0,Hunts Point,82502,,05/08/2018,12/06/2017,2005801,2027270001,2012701,"(40.82450311, -73.8928854)",LINK-024308,New Site,11/08/2017,
03/09/2018,BX-02-GF22194,40.82382,-73.89396,Bronx,C1-4,17,202,995C WESTCHESTER AVENUE,EAST 165 STREET,WESTCHESTER AVENUE,MIDBLOCK,10459,,No,0,Longwood,82501,,05/08/2018,12/06/2017,2005668,2027150049,2012901,"(40.82381955, -73.89396079)",LINK-024307,New Site,11/08/2017,
02/16/2018,BX-04-GF22198,40.82610,-73.92045,Bronx,C6-2,16,204,236 EAST 161 STREET,SHERMAN AVENUE,CONCOURSE VILLAGE EAST,MIDBLOCK,10451,161st Street,Yes,0,East Concourse-Concourse Village,82560,,04/17/2018,02/14/2018,2099027,2024430090,2006100,"(40.82610181, -73.92045196)",LINK-024311,New Site,12/12/2017,
12/14/2017,bk-02-GF33567,40.69287,-73.98424,Brooklyn,C6-4,33,302,151 DUFFIELD STREET,METROTECH ROADWAY,WILLOUGHBY STREET,MIDBLOCK,11201,MetroTech,Yes,0,DUMBO-Vinegar Hill-Downtown Brooklyn-Boerum Hill,82426,,02/12/2018,12/06/2017,3319505,3020590001,3001500,"(40.692872, -73.98424038)",LINK-024312,New Site,10/11/2017,
01/10/2018,bk-17-GF33559,40.65115,-73.94110,Brooklyn,C2-2,45,317,3824 CHURCH AVENUE,EAST 39 STREET,EAST 38 STREET,SW,11203,,No,0,East Flatbush-Farragut,82297,,03/11/2018,12/18/2017,3109611,3048920010,3085800,"(40.651149, -73.941099)",LINK-023710,New Site,09/07/2017,
12/01/2017,qu-01-GF44387,40.76891,-73.91210,Queens,C2-3,22,401,24-26 38 STREET,ASTORIA BOULEVARD SOUTH,28 AVENUE,SW,11103,,No,0,Astoria,82419,,01/30/2018,11/29/2017,4010189,4006530050,4006502,"(40.76890777662745, -73.91210114599801)",LINK-023716,New Site,10/03/2017,
12/14/2017,bk-02-GF33564,40.68702,-73.97715,Brooklyn,R6B,35,302,38 LAFAYETTE AVENUE,ST FELIX STREET,FORT GREENE PLACE,NE,11217,Fulton Area,Yes,0,Fort Greene,82295,,02/12/2018,12/06/2017,3059210,3021090008,3003300,"(40.68701932, -73.97715152)",LINK-023715,New Site,09/07/2017,
03/09/2018,BX-01-GF22182,40.81185,-73.92789,Bronx,M1-4/R7X,8,201,250 RIDER AVENUE,EAST 138 STREET,EAST 139 STREET,NE,10451,,No,0,Mott Haven-Port Morris,82395,,05/08/2018,12/06/2017,2000950,2023330010,2005100,"(40.81184635, -73.92788614)",LINK-023809,New Site,10/06/2017,
01/19/2018,qu-03-GF44397,40.74955,-73.86635,Queens,C1-4,21,403,99-07 ROOSEVELT AVENUE,99 STREET,NATIONAL STREET,NE,11368,,No,0,North Corona,82492,,03/20/2018,12/06/2017,4040271,4017650044,4040700,"(40.7495545, -73.86635316)",LINK-023876,New Site,11/08/2017,
01/10/2018,bk-17-GF33565,40.65089,-73.94933,Brooklyn,C1-3,40,317,3001 CHURCH AVENUE,NOSTRAND AVENUE,FAIRVIEW PLACE,NE,11226,,No,0,Erasmus,82324,,03/11/2018,12/18/2017,3327739,3048690001,3081800,"(40.65089174, -73.94932632)",LINK-023878,New Site,09/25/2017,
09/21/2018,qu-03-GF44398,40.74969,-73.86495,Queens,C1-4,21,403,100-13 ROOSEVELT AVENUE,99 STREET,102 STREET,MIDBLOCK,11368,,No,0,North Corona,82491,,11/20/2018,09/12/2018,4440198,4017700059,4040700,"(40.74968749, -73.86494633)",LINK-023877,New Site,11/08/2017,
08/06/2018,bk-16-GF33599,40.66429,-73.90943,Brooklyn,C2-3,41,316,642 ROCKAWAY AVENUE,BLAKE AVENUE,DUMONT AVENUE,NW,11212,,No,0,Brownsville,82655,,10/05/2018,07/31/2018,3081791,3035600047,3092400,"(40.66429001, -73.90943413)",LINK-025049,New Site,06/28/2018,
08/15/2018,si-01-GF55134,40.64074,-74.07682,Staten Island,C4-2,49,501,26 CENTRAL AVENUE,HYATT STREET,SLOSSON TERRACE,MIDBLOCK,10301,,No,0,West New Brighton-New Brighton-St. George,82654,,10/14/2018,08/14/2018,5151735,5000060021,5000300,"(40.640744865357284, -74.07681981537081)",LINK-026502,New Site,06/28/2018,
12/05/2017,bk-06-GF33487,40.67092,-73.99176,Brooklyn,M2-1,39,306,200 10 STREET,3 AVENUE,2 AVENUE,SW,11215,,No,0,Park Slope-Gowanus,82196,,02/03/2018,12/01/2017,3250835,3010140044,3012100,"(40.67091755, -73.99176131)",LINK-022690,New Site,08/16/2017,
02/02/2018,mn-07-GF0063,40.78069,-73.97669,Manhattan,C1-8A,6,107,100 WEST 77 STREET,COLUMBUS AVENUE,AMSTERDAM AVENUE,,10024,Columbus Avenue,Yes,1,Upper West Side,82384,,04/03/2018,01/23/2018,1030211,1011480014,1016100,"(40.78069441, -73.97669473)",LINK-020400,New Site,09/28/2017,
12/15/2017,mn-02-GF0068,40.72879,-74.00029,Manhattan,C1-5,1,102,169 BLEECKER STREET,SULLIVAN STREET,THOMPSON STREET,NE,10012,,No,1,West Village,82409,,02/13/2018,12/06/2017,1008687,1005390042,1006500,"(40.72878718, -74.000292)",LINK-020405,New Site,10/11/2017,
12/05/2017,bk-06-GF33489,40.67646,-73.98699,Brooklyn,M2-1,39,306,312 3 AVENUE,1 STREET,CARROLL STREET,,11215,,No,0,Park Slope-Gowanus,82198,,02/03/2018,12/01/2017,3007684,3004530054,3011900,"(40.67646062, -73.98698905)",LINK-022692,New Site,08/16/2017,
12/01/2017,bk-07-GF33488,40.66481,-73.98983,Brooklyn,C4-3A,39,307,577 5 AVENUE,16 AVENUE,PROSPECT AVENUE,SE,11215,Park Slope 5th Avenue,Yes,0,Park Slope-Gowanus,82197,,01/30/2018,10/11/2017,3024175,3010530015,3014100,"(40.66481261, -73.98982589)",LINK-022691,New Site,08/16/2017,
12/01/2017,bk-07-GF33493,40.65296,-74.00944,Brooklyn,M1-2,38,307,4018 3 AVENUE,41 STREET,40 STREET,NW,11232,,No,0,Sunset Park West,82279,,01/30/2018,10/11/2017,3010574,3007120043,3000200,"(40.65295869, -74.00943592)",LINK-023023,New Site,08/30/2017,
12/01/2017,bk-07-GF33494,40.65243,-74.00997,Brooklyn,M1-2,38,307,4118 3 AVENUE,41 STREET,42 STREET,NW,11232,,No,0,Sunset Park West,82321,,01/30/2018,10/11/2017,3010664,3007170045,3000200,"(40.65243179, -74.0099704)",LINK-023024,New Site,09/15/2017,
12/01/2017,bk-07-GF33501,40.65354,-74.00884,Brooklyn,M1-2,38,307,3924 3 AVENUE,39 STREET,40 STREET,NW,11232,,No,0,Sunset Park West,82318,,01/30/2018,10/11/2017,3010465,3007070044,3000200,"(40.65354322, -74.00883983)",LINK-023031,New Site,09/15/2017,
02/16/2018,mn-12-GF0061,40.86022,-73.92876,Manhattan,C1-4,10,112,68 NAGLE AVENUE,ELLWOOD STREET,HILLSIDE AVENUE,NW,10040,,No,0,Washington Heights North,82554,,04/17/2018,02/14/2018,1064145,1021720056,1028500,"(40.86022343, -73.92875504)",LINK-020304,New Site,12/12/2017,
08/06/2018,si-02-GF55060,40.57383,-74.11591,Staten Island,C2-2,50,502,135 NEW DORP LANE,SOUTH RAILROAD AVENUE,8 STREET,SE,10306,,No,0,New Dorp-Midland Beach,82013,,10/05/2018,07/23/2018,5052603,5036370038,5012200,"(40.57383357, -74.11590521)",LINK-023249,New Site,06/30/2017,
12/14/2017,bk-02-GF3024,40.69499,-73.98986,Brooklyn,C6-1,33,302,17 JOHNSON STREET,CADMAN PLAZA EAST,ADAMS STREET,SE,11201,Court-Livingston-Schermerhorn,Yes,0,DUMBO-Vinegar Hill-Downtown Brooklyn-Boerum Hill,81649,,02/12/2018,12/06/2017,3000242,3001270001,3001100,"(40.69499358, -73.9898569)",LINK-018054,New Site,08/16/2017,
02/02/2018,mn-11-GF0282,40.80503,-73.93508,Manhattan,C1-4,9,111,174 EAST 127 STREET,LEXINGTON AVENUE,3 AVENUE,NW,10035,,No,0,East Harlem North,82423,,04/03/2018,01/23/2018,1054497,1017750040,1024200,"(40.805034, -73.935083)",LINK-023019,New Site,10/11/2017,
08/06/2018,si-02-GF55058,40.56988,-74.10885,Staten Island,C4-1,50,502,422 NEW DORP LANE,HYLAN BOULEVARD,MILL ROAD,MIDBLOCK,10306,,No,0,New Dorp-Midland Beach,82039,,10/05/2018,07/23/2018,5168573,5039600096,5012804,"(40.56988026, -74.1088456)",LINK-023247,New Site,06/30/2017,
08/06/2018,si-02-GF55059,40.57353,-74.11533,Staten Island,C2-2,50,502,153 NEW DORP LANE,8 STREET,9 STREET,MIDBLOCK,10306,,No,0,New Dorp-Midland Beach,82014,,10/05/2018,07/23/2018,5107557,5036370026,5012200,"(40.57353381269947, -74.11533466275671)",LINK-023248,New Site,06/30/2017,
11/30/2016,bk-02-GF3042,40.68221,-73.96050,Brooklyn,C2-4,35,302,1035 FULTON STREET,DOWNING STREET,IRVING PLACE,,11238,Fulton Area,Yes,0,Clinton Hill,81483,,01/29/2017,11/30/2016,3418184,3019920012,3022700,"(40.682211, -73.960504)",LINK-018072,New Site,08/23/2016,
06/23/2016,si-02-GF5015,40.57422,-74.11692,Staten Island,C2-1,50,502,100 NEW DORP LANE,NEW DORP PLAZA,4 STREET,SW,10306,,No,0,New Dorp-Midland Beach,81422,10/26/2016 12:00:00 AM,08/22/2016,06/23/2016,5057313,5041990001,5013400,"(40.574221, -74.116919)",LINK-005411,New Site,06/23/2016,06/30/2016
09/21/2018,bk-07-GF33554,40.65219,-74.01025,Brooklyn,M1-2,38,307,4202 3 AVENUE,43 STREET,42 STREET,SW,11232,,No,0,Sunset Park West,82404,,11/20/2018,09/12/2018,3010796,3007220035,3000200,"(40.65219302, -74.01024886)",LINK-023652,New Site,10/11/2017,
12/01/2017,bk-07-GF33558,40.64715,-74.01550,Brooklyn,M1-2D,38,307,5102 3 AVENUE,51 STREET,52 STREET,SW,11220,,No,0,Sunset Park West,82316,,01/30/2018,10/11/2017,3013477,3007970037,3002000,"(40.647148, -74.015505)",LINK-023657,New Site,09/15/2017,
10/03/2016,mn-12-GF0014,40.83306,-73.94540,Manhattan,C2-4,7,112,3740 BROADWAY,WEST 155 STREET,WEST 156 STREET,,10032,,No,0,Washington Heights South,81585,,12/02/2016,10/03/2016,1062677,1021140001,1024100,"(40.83305658, -73.94539639)",LINK-018175,New Site,08/15/2016,
11/30/2016,bk-03-GF3109,40.67914,-73.94956,Brooklyn,C4-5D,36,303,531 NOSTRAND AVENUE,HERKIMER STREET,HERKIMER PLACE,,11216,Bed-Stuy Gateway,Yes,0,Crown Heights North,81681,,01/29/2017,11/30/2016,3053944,3018670011,3024700,"(40.67914128, -73.9495558)",LINK-019364,New Site,10/17/2016,
11/30/2016,bk-09-GF3115,40.66456,-73.95114,Brooklyn,C1-3,35,309,988 NOSTRAND AVENUE,SULLIVAN PLACE,EMPIRE BOULEVARD,,11225,,No,0,Crown Heights South,,,01/29/2017,11/30/2016,3034523,3013080036,3032100,"(40.66455832, -73.95113592)",LINK-019370,New Site,10/17/2016,
11/30/2016,bk-08-GF3112,40.67759,-73.94960,Brooklyn,C2-4,36,308,1260 PACIFIC STREET,NOSTRAND AVENUE,NEW YORK AVENUE,,11216,,No,0,Crown Heights North,81692,,01/29/2017,11/30/2016,3030039,3012070005,3031500,"(40.67758818, -73.94959898)",LINK-019367,New Site,10/17/2016,
11/30/2016,bk-16-GF3102,40.67873,-73.91372,Brooklyn,C2-3,41,316,170 THOMAS S. BOYLAND STREET,FULTON STREET,HULL STREET,,11233,,No,0,Ocean Hill,,,01/29/2017,11/30/2016,3398125,3015370001,3037100,"(40.67873332, -73.91371721)",LINK-018131,New Site,08/23/2016,
08/18/2017,mn-10-GF0040,40.80766,-73.95329,Manhattan,C1-4,9,110,2235 FREDERICK DOUGLASS BOULEVARD,WEST 120 STREET,WEST 121 STREET,,10027,,No,0,Central Harlem South,82003,,10/17/2017,08/18/2017,1086186,1019477501,1025700,"(40.80765627, -73.95328697)",LINK-019834,New Site,06/30/2017,
08/18/2017,mn-10-GF0044,40.82402,-73.94082,Manhattan,C1-4,9,110,298 WEST 147 STREET,FREDERICK DOUGLASS BOULEVARD,ADAM CLAYTON POWELL BOULEVARD,,10039,,No,0,Central Harlem North-Polo Grounds,82007,,10/17/2017,08/18/2017,1060516,1020320061,1023400,"(40.824022, -73.940823)",LINK-019838,New Site,06/30/2017,
08/18/2017,mn-10-GF0042,40.81846,-73.94535,Manhattan,C1-4,9,110,300 WEST 138 STREET,FREDERICK DOUGLASS BOULEVARD,EDGECOMBE AVENUE,,10030,,No,0,Central Harlem North-Polo Grounds,82005,,10/17/2017,08/18/2017,1084485,1020417502,1022102,"(40.81846227, -73.94535179)",LINK-019836,New Site,06/30/2017,
10/05/2016,BX-01-GF2042,40.80737,-73.92993,Bronx,M1-3/R8,8,201,101 LINCOLN AVENUE,EAST 132 STREET,BRUCKNER BOULEVARD,,10454,,No,0,Mott Haven-Port Morris,81629,,12/04/2016,10/05/2016,2000759,2023160001,2001900,"(40.80736811, -73.9299324)",LINK-018229,New Site,08/18/2016,
10/03/2016,mn-11-GF0030,40.80037,-73.93810,Manhattan,C4-4D,8,111,2201 3 AVENUE,EAST 120 STREET,EAST 119 STREET,SE,10035,,No,0,East Harlem North,81631,,12/02/2016,10/03/2016,1054564,1017840045,1019400,"(40.80037311, -73.93809872)",LINK-018374,New Site,09/28/2016,
02/02/2018,mn-11-GF0028,40.78540,-73.94934,Manhattan,C1-5,5,111,1710 3 AVENUE,EAST 96 STREET,EAST 97 STREET,NW,10029,,No,0,East Harlem South,81630,,04/03/2018,10/03/2016,1082901,1016240033,1015802,"(40.78540009, -73.9493395)",LINK-018372,New Site,09/28/2016,07/28/2017
11/03/2017,BX-07-GF22065,40.86192,-73.89259,Bronx,C4-4,15,207,361 EAST FORDHAM ROAD,MARION AVENUE,DECATUR AVENUE,NE,10458,Fordham Road,Yes,0,Bedford Park-Fordham North,82155,,01/02/2018,10/11/2017,2016303,2032750001,2039901,"(40.86192193, -73.89258824)",LINK-019888,New Site,08/11/2017,
10/03/2016,mn-11-GF0032,40.79911,-73.93902,Manhattan,C4-4D,8,111,2151 3 AVENUE,EAST 117 STREET,EAST 118 STREET,,10035,,No,0,East Harlem North,81634,,12/02/2016,10/03/2016,1081437,1016670045,1018800,"(40.79911084, -73.93901913)",LINK-018376,New Site,09/28/2016,
04/03/2017,bk-07-GF33415,40.66027,-73.99801,Brooklyn,M1-1D,38,307,755 4 AVENUE,25 STREET,26 STREET,,11232,,No,0,Sunset Park West,81832,,06/02/2017,04/03/2017,3009612,3006550006,3010100,"(40.66026661, -73.99801057)",LINK-021523,New Site,03/07/2017,05/12/2017
11/03/2017,BX-07-GF2064,40.86308,-73.89429,Bronx,C4-4,15,207,310 EAST KINGSBRIDGE ROAD,BRIGGS AVENUE,COLES LANE,SW,10458,Fordham Road,Yes,0,Bedford Park-Fordham North,82281,,01/02/2018,10/11/2017,2116006,2031540083,2039901,"(40.863079, -73.894293)",LINK-019676,New Site,09/01/2017,
05/04/2017,qu-02-GF4093,40.74393,-73.94975,Queens,M1-5/R7X,26,402,43464 JACKSON AVENUE,47 ROAD,48 AVENUE,,11101,,No,0,Hunters Point-Sunnyside-West Maspeth,81604,,07/03/2017,05/04/2017,4000000,4000610011,4000700,"(40.74393295, -73.94975396)",LINK-018204,New Site,03/29/2017,
04/03/2017,bk-02-GF33153,40.69108,-73.99191,Brooklyn,C6-2A,33,302,47 SCHERMERHORN STREET,SCHERMERHORN,,,11201,Court-Livingston-Schermerhorn,Yes,0,Brooklyn Heights-Cobble Hill,81768,,06/02/2017,04/03/2017,3002641,3002680054,3000900,"(40.69107775, -73.99190746)",LINK-020777,New Site,02/22/2017,
05/16/2017,bk-05-GF33451,40.68486,-73.86775,Brooklyn,C1-2,37,305,3470 FULTON STREET,GRANT AVENUE,,,11208,,No,0,Cypress Hills-City Line,81901,,07/15/2017,05/16/2017,3093030,3041510039,3118400,"(40.68486059, -73.86774586)",LINK-021924,New Site,05/04/2017,
04/03/2017,qu-09-GF44354,40.69286,-73.85492,Queens,C1-4,32,409,89-19 JAMAICA AVENUE,90 STREET,89 STREET,,11421,Woodhaven,Yes,0,Woodhaven,81796,,06/02/2017,04/03/2017,4182019,4088680031,4001400,"(40.69285678, -73.85491916)",LINK-021391,New Site,02/23/2017,05/15/2017
02/16/2018,mn-10-GF0331,40.80469,-73.95166,Manhattan,C1-4,9,110,1960 7 AVENUE,WEST 118 STREET,WEST 119 STREET,NW,10026,,No,0,Central Harlem South,82534,,04/17/2018,02/14/2018,1058420,1019240029,1022000,"(40.8046929, -73.95165759)",LINK-023782,New Site,11/29/2017,
03/08/2017,bk-01-GF33145,40.71432,-73.94587,Brooklyn,C2-4,34,301,694 METROPOLITAN AVENUE,MANHATTAN AVENUE,,,11211,,No,0,East Williamsburg,81736,,05/07/2017,03/08/2017,3068866,3027640008,3049700,"(40.71432358, -73.94587425)",LINK-020769,New Site,02/14/2017,
02/16/2018,mn-10-GF0347,40.81617,-73.94328,Manhattan,C1-4,9,110,2320 ADAM CLAYTON POWELL JR. BOULEVARD,WEST 136 STREET,WEST 137 STREET,NE,10030,,No,0,Central Harlem North-Polo Grounds,82540,,04/17/2018,02/14/2018,1058955,1019420029,1022800,"(40.81616997, -73.94328166)",LINK-023798,New Site,11/29/2017,
02/16/2018,mn-10-GF0346,40.81487,-73.94423,Manhattan,C1-4,9,110,2286 ADAM CLAYTON POWELL JR. BOULEVARD,WEST 134 STREET,WEST 135 STREET,NE,10030,,No,0,Central Harlem North-Polo Grounds,82539,,04/17/2018,02/14/2018,1058862,1019400129,1022800,"(40.81487062, -73.94422922)",LINK-023797,New Site,11/29/2017,
02/16/2018,mn-10-GF0349,40.81224,-73.94979,Manhattan,C1-4,9,110,2393 8 AVENUE,WEST 128 STREET,WEST 129 STREET,NW,10027,,No,0,Central Harlem North-Polo Grounds,82553,,04/17/2018,02/14/2018,1059398,1019550010,1021500,"(40.81223938, -73.94979326)",LINK-023800,New Site,12/11/2017,
02/16/2018,mn-10-GF0348,40.81564,-73.94367,Manhattan,C1-4,9,110,2304 ADAM CLAYTON POWELL JR. BOULEVARD,WEST 135 STREET,WEST 136 STREET,MIDBLOCK,10030,,No,0,Central Harlem North-Polo Grounds,82541,,04/17/2018,02/14/2018,1058894,1019410031,1022800,"(40.8156372, -73.94367004)",LINK-023799,New Site,11/29/2017,
02/16/2018,mn-10-GF0350,40.82334,-73.94142,Manhattan,C1-4,9,110,2738 FREDERICK DOUGLASS BOULEVARD,WEST 145 STREET,WEST 146 STREET,SE,10039,,No,0,Central Harlem North-Polo Grounds,82543,,04/17/2018,02/14/2018,1088718,1020310003,1023200,"(40.82334035, -73.94142198)",LINK-023801,New Site,11/29/2017,
02/16/2018,mn-10-GF0356,40.80129,-73.94770,Manhattan,C4-5X,9,110,27 WEST 116 STREET,5 AVENUE,MALCOLM X BOULEVARD,MIDBLOCK,10026,,No,0,Central Harlem South,82551,,04/17/2018,02/14/2018,1089780,1016007502,1019000,"(40.80128631, -73.947704)",LINK-023807,New Site,12/06/2017,
12/27/2017,qu-04-GF44393,40.73689,-73.87926,Queens,C2-2,25,404,84-04 QUEENS BOULEVARD,VAN LOON STREET,GRAND AVENUE,SE,11373,,No,0,Elmhurst,82389,,02/25/2018,12/06/2017,4057363,4024770002,4047500,"(40.73688997, -73.8792581)",LINK-023872,New Site,10/06/2017,
12/27/2017,qu-04-GF44392,40.73744,-73.88215,Queens,C1-2,25,404,81-08 QUEENS BOULEVARD,CODWISE PLACE,SIMONSON STREET,SE,11373,,No,0,Elmhurst-Maspeth,82388,,02/25/2018,12/06/2017,4057230,4024740040,4047900,"(40.73743593, -73.88215437)",LINK-023871,New Site,10/06/2017,
02/16/2018,mn-10-GF0341,40.80866,-73.94737,Manhattan,C4-7,9,110,163 WEST 125 STREET,LENOX AVENUE,ADAM CLAYTON POWELL JR BOULEVARD,MIDBLOCK,10027,125th Street,Yes,0,Central Harlem South,82535,,04/17/2018,02/14/2018,1057819,1019100001,1022200,"(40.8086645, -73.94737322)",LINK-023792,New Site,11/29/2017,
02/16/2018,mn-10-GF0289,40.80152,-73.95759,Manhattan,C1-4,9,110,2053 FREDERICK DOUGLASS BOULEVARD,WEST 111 STREET,WEST 112 STREET,MIDBLOCK,10026,,No,0,Central Harlem South,82577,,04/17/2018,02/14/2018,1055765,1018460044,1019702,"(40.80151595, -73.95758972)",LINK-023352,New Site,11/29/2017,
02/16/2018,mn-10-GF0343,40.80648,-73.95396,Manhattan,C1-4,9,110,2211 FREDERICK DOUGLASS BOULEVARD,WEST 119 STREET,WEST 120 STREET,NW,10026,,No,0,Central Harlem South,82528,,04/17/2018,02/14/2018,1077815,1019460029,1025700,"(40.80648425, -73.95396445)",LINK-023794,New Site,11/29/2017,
02/02/2018,mn-11-GF0292,40.78833,-73.94719,Manhattan,C1-5,8,111,1810 3 AVENUE,EAST 100 STREET,EAST 101 STREET,SW,10029,,No,0,East Harlem South,82529,,04/03/2018,01/23/2018,1087540,1016281201,1016600,"(40.78832513, -73.94718807)",LINK-023356,New Site,11/29/2017,
02/16/2018,mn-10-GF0342,40.80945,-73.94913,Manhattan,C4-7,9,110,215 WEST 125 STREET,ADAM CLAYTON POWELL JR BOULEVARD,FREDERICK DOUGLASS BOULEVARD,MIDBLOCK,10027,125th Street,Yes,0,Central Harlem South,82536,,04/17/2018,02/14/2018,1058659,1019310021,1022200,"(40.80944757, -73.94913393)",LINK-023793,New Site,11/29/2017,
02/16/2018,mn-10-GF0345,40.81355,-73.94519,Manhattan,C1-4,9,110,2244 ADAM CLAYTON POWELL JR. BOULEVARD,WEST 132 STREET,WEST 133 STREET,NW,10027,,No,0,Central Harlem North-Polo Grounds,82537,,04/17/2018,02/14/2018,1058778,1019380029,1022600,"(40.81355136, -73.94519057)",LINK-023796,New Site,11/29/2017,
02/16/2018,mn-10-GF0344,40.80782,-73.94952,Manhattan,C2-4,9,110,201 WEST 123 STREET,ADAM CLAYTON POWELL JR BOULEVARD,FREDERICK DOUGLASS BOULEVARD,NW,10027,,No,0,Central Harlem South,82538,,04/17/2018,02/14/2018,1088475,1019290029,1022200,"(40.80782003, -73.94952381)",LINK-023795,New Site,11/29/2017,
02/02/2018,mn-11-GF0274,40.80510,-73.93719,Manhattan,C4-4D,9,111,130 EAST 126 STREET,LEXINGTON AVENUE,PARK AVENUE,SW,10035,,No,0,East Harlem North,82372,,04/03/2018,01/23/2018,1054488,1017740056,1019600,"(40.80510265, -73.93719105)",LINK-021800,New Site,09/28/2017,
02/02/2018,mn-11-GF0273,40.80435,-73.93713,Manhattan,C4-4D,9,111,145 EAST 125 STREET,LEXINGTON AVENUE,3 AVENUE,NE,10035,,No,0,East Harlem North,82366,,04/03/2018,01/23/2018,1054478,1017740020,1019600,"(40.80434771, -73.93713223)",LINK-021799,New Site,09/28/2017,
12/27/2017,qu-04-GF44379,40.73836,-73.88447,Queens,M1-1,25,404,79-01 QUEENS BOULEVARD,BARNWELL AVENUE,CORNISH AVENUE,NE,11373,,No,0,Elmhurst-Maspeth,82422,,02/25/2018,12/06/2017,4038524,4015380010,4048500,"(40.73836495, -73.88446867)",LINK-022392,New Site,10/11/2017,
12/27/2017,qu-04-GF44381,40.73809,-73.88254,Queens,C2-3,25,404,81-01 DONGAN AVENUE,QUEENS BOULEVARD,POYER STREET,NW,11373,,No,0,Elmhurst-Maspeth,82396,,02/25/2018,12/06/2017,4617249,4015390001,4048500,"(40.738091, -73.882544)",LINK-022394,New Site,10/06/2017,
12/27/2017,qu-04-GF44382,40.73777,-73.88131,Queens,C2-3,25,404,82-11 QUEENS BOULEVARD,51 AVENUE,VAN LOON STREET,NE,11373,,No,0,Elmhurst,82387,,02/25/2018,12/06/2017,4535031,4015420001,4047300,"(40.73776661, -73.88130723)",LINK-022395,New Site,10/06/2017,
11/16/2017,bk-16-GF33513,40.67846,-73.91512,Brooklyn,C2-3,41,316,2082 FULTON STREET,SARATOGA AVENUE,THOMAS S BOYLAND STREET,MIDBLOCK,11233,,No,0,Ocean Hill,82323,,01/15/2018,11/06/2017,3042157,3015500001,3030100,"(40.67845541, -73.91512101)",LINK-023359,New Site,09/15/2017,
12/14/2017,bk-02-GF33517,40.69517,-73.98856,Brooklyn,C6-4,33,302,259 ADAMS STREET,JOHNSON STREET,TILLARY STREET,NE,11201,MetroTech,Yes,0,DUMBO-Vinegar Hill-Downtown Brooklyn-Boerum Hill,82296,,02/12/2018,12/06/2017,3000243,3001280001,3001300,"(40.69516938, -73.9885639)",LINK-023363,New Site,09/07/2017,
02/02/2018,mn-11-GF0266,40.80054,-73.94004,Manhattan,C1-4,8,111,147 EAST 119 STREET,LEXINGTON AVENUE,3 AVENUE,NE,10035,,No,0,East Harlem North,82377,,04/03/2018,01/23/2018,1075645,1017680021,1019600,"(40.80053996, -73.9400383)",LINK-021792,New Site,09/28/2017,
01/10/2018,mn-08-GF0228,40.77759,-73.95213,Manhattan,C2-8A,5,108,1645 2 AVENUE,EAST 85 STREET,EAST 86 STREET,SE,10028,,No,0,Yorkville,82547,,03/11/2018,12/22/2017,1048772,1015310028,1014601,"(40.777587, -73.95213313)",LINK-021754,New Site,12/07/2017,
02/02/2018,mn-11-GF0267,40.80106,-73.93976,Manhattan,C1-4,8,111,160 EAST 120 STREET,LEXINGTON AVENUE,PARK AVENUE,SE,10035,,No,0,East Harlem North,82365,,04/03/2018,01/23/2018,1083501,1017680021,1019600,"(40.80105743, -73.93975846)",LINK-021793,New Site,09/28/2017,
12/14/2017,bk-02-GF33381,40.69306,-73.98328,Brooklyn,C6-4,33,302,360 GOLD STREET,MYRTLE AVENUE,WILLOUGHBY STREET,MIDBLOCK,11201,MetroTech,Yes,0,DUMBO-Vinegar Hill-Downtown Brooklyn-Boerum Hill,82338,,02/12/2018,12/06/2017,3319505,3020600008,3001500,"(40.69305896, -73.98327997)",LINK-021317,New Site,09/25/2017,
12/14/2017,bk-02-GF33384,40.69338,-73.98421,Brooklyn,C6-4,33,302,155 DUFFIELD STREET,MYRTLE AVENUE,METROTECH ROADWAY,SE,11201,MetroTech,Yes,0,DUMBO-Vinegar Hill-Downtown Brooklyn-Boerum Hill,82354,,02/12/2018,12/06/2017,3319505,3020590001,3001500,"(40.69337757, -73.98421342)",LINK-021320,New Site,09/25/2017,
12/14/2017,bk-02-GF33385,40.69352,-73.98272,Brooklyn,C6-4,35,302,150 MYRTLE AVENUE,FLATBUSH AVENUE,FLEET PLACE,SW,11201,Myrtle Avenue Brooklyn,Yes,0,DUMBO-Vinegar Hill-Downtown Brooklyn-Boerum Hill,82339,,02/12/2018,12/06/2017,3394020,3020600015,3001500,"(40.69352224, -73.98272259)",LINK-021321,New Site,09/25/2017,
12/14/2017,bk-02-GF33390,40.68662,-73.97826,Brooklyn,C6-2,35,302,300 ASHLAND PLACE,LAFAYETTE AVENUE,HANSON PLACE,SW,11217,MetroTech,Yes,0,Fort Greene,82290,,02/12/2018,12/06/2017,3424445,3021100003,3003500,"(40.68662366, -73.97825691)",LINK-021326,New Site,09/07/2017,
01/10/2018,mn-08-GF0189,40.76893,-73.95813,Manhattan,C1-5,5,108,1398 2 AVENUE,EAST 72 STREET,EAST 73 STREET,SW,10021,,No,0,Lenox Hill-Roosevelt Island,82508,,03/11/2018,12/22/2017,1076314,1014477501,1012600,"(40.7689342, -73.95813497)",LINK-021715,New Site,11/21/2017,
12/14/2017,bk-02-GF33391,40.68857,-73.98522,Brooklyn,C6-1,33,302,200-4 SCHERMERHORN STREET,HOYT STREET,BOND STREET,MIDBLOCK,11217,Court-Livingston-Schermerhorn,Yes,0,DUMBO-Vinegar Hill-Downtown Brooklyn-Boerum Hill,82350,,02/12/2018,12/06/2017,3000541,3001710001,3004100,"(40.68856848, -73.98522399)",LINK-021327,New Site,10/02/2017,
02/02/2018,mn-11-GF0194,40.78455,-73.94705,Manhattan,C2-5,5,111,1869 2 AVENUE,EAST 96 STREET,EAST 97 STREET,MIDBLOCK,10029,,No,0,East Harlem South,82545,,04/03/2018,01/23/2018,1052377,1016460023,1015602,"(40.78455399, -73.94704725)",LINK-021720,New Site,12/07/2017,
02/02/2018,mn-11-GF0235,40.78971,-73.94832,Manhattan,C1-5,8,111,126 EAST 102 STREET,LEXINGTON AVENUE,PARK AVENUE,SW,10029,,No,0,East Harlem South,82376,,04/03/2018,01/23/2018,1051872,1016290059,1016600,"(40.789708, -73.948323)",LINK-021761,New Site,09/28/2017,
12/14/2017,bk-02-GF33324,40.69226,-73.98953,Brooklyn,C5-4,33,302,250 JORALEMON STREET,BROOKLYN BRIDGE BOULEVARD,COURT STREET,SW,11201,Court-Livingston-Schermerhorn,Yes,0,Brooklyn Heights-Cobble Hill,82346,,02/12/2018,12/06/2017,3002559,3002660050,3000900,"(40.69225533, -73.98953396)",LINK-021260,New Site,10/02/2017,
11/16/2017,bk-01-GF33364,40.70088,-73.94149,Brooklyn,C4-3,34,301,785 FLUSHING AVENUE,BROADWAY,HUMBOLDT STREET,MIDBLOCK,11206,Graham Avenue,Yes,0,East Williamsburg,82193,,01/15/2018,11/06/2017,3326062,3031270001,3049100,"(40.70088, -73.94149)",LINK-021300,New Site,08/16/2017,
11/16/2017,bk-01-GF33363,40.70468,-73.92901,Brooklyn,M1-1,34,301,1081 FLUSHING AVENUE,NOLL STREET,KNICKERBOCKER AVENUE,W,11237,,No,0,Bushwick North,82300,,01/15/2018,11/06/2017,3070739,3030130020,3045300,"(40.70468, -73.92901)",LINK-021299,New Site,09/07/2017,
12/14/2017,bk-02-GF33328,40.69749,-73.98289,Brooklyn,C6-2,33,302,200 CONCORD STREET,GOLD STREET,PRINCE STREET,SE,11201,,No,0,DUMBO-Vinegar Hill-Downtown Brooklyn-Boerum Hill,82353,,02/12/2018,12/06/2017,3396901,3001220013,3001500,"(40.69749079, -73.98288756)",LINK-021264,New Site,10/02/2017,
07/20/2017,bk-01-GF33331,40.72072,-73.95654,Brooklyn,M1-2/R6A,33,301,120 NORTH 11 STREET,BERRY STREET,BEDFORD AVENUE,,11249,,No,0,North Side-South Side,81940,,09/18/2017,07/20/2017,3388496,3022977501,3051700,"(40.72072477, -73.95654109)",LINK-021267,New Site,05/24/2017,
12/14/2017,bk-02-GF33374,40.69216,-73.98647,Brooklyn,C6-4.5,33,302,62 WILLOUGHBY STREET,LAWRENCE STREET,JAY STREET,SW,11201,MetroTech,Yes,0,DUMBO-Vinegar Hill-Downtown Brooklyn-Boerum Hill,82333,,02/12/2018,12/06/2017,3000393,3001510029,3001100,"(40.6921575, -73.98647039)",LINK-021310,New Site,09/25/2017,
12/01/2017,bk-08-GF33332,40.68107,-73.97098,Brooklyn,M1-1,35,308,535 CARLTON AVENUE,DEAN STREET,PACIFIC STREET,NE,11238,,No,0,Prospect Heights,82246,,01/30/2018,10/11/2017,3418188,3011290001,3016300,"(40.68106502, -73.97097539)",LINK-021268,New Site,08/25/2017,
12/14/2017,bk-02-GF33372,40.69258,-73.98823,Brooklyn,C5-4,33,302,372 PEARL STREET,WILLOUGHBY STREET,JOHNSON STREET,NW,11201,MetroTech,Yes,0,DUMBO-Vinegar Hill-Downtown Brooklyn-Boerum Hill,82327,,02/12/2018,12/06/2017,3392969,3001407503,3001100,"(40.69258203, -73.9882314)",LINK-021308,New Site,09/25/2017,
11/16/2017,bk-04-GF33335,40.70229,-73.93517,Brooklyn,M1-2,34,304,930 FLUSHING AVENUE,STANWIX STREET,EVERGREEN AVENUE,SE,11206,,No,0,Bushwick South,82266,,01/15/2018,11/06/2017,3071838,3031400001,3039100,"(40.70229108, -73.93517189)",LINK-021271,New Site,08/30/2017,
12/14/2017,bk-02-GF33375,40.69226,-73.98533,Brooklyn,C6-4.5,33,302,372 BRIDGE STREET,WILLOUGHBY STREET,MYRTLE PROMENADE,NW,11201,MetroTech,Yes,0,DUMBO-Vinegar Hill-Downtown Brooklyn-Boerum Hill,82334,,02/12/2018,12/06/2017,3000349,3001480039,3001100,"(40.69225621, -73.98533084)",LINK-021311,New Site,09/25/2017,
07/20/2017,bk-01-GF33336,40.71695,-73.96501,Brooklyn,M1-2/R6A,33,301,51 NORTH 1 STREET,KENT AVENUE,WYTHE AVENUE,SE,11249,,No,0,North Side-South Side,81963,,09/18/2017,07/20/2017,3062433,3023630038,3055500,"(40.71694918, -73.96501362)",LINK-021272,New Site,06/08/2017,
02/02/2018,mn-07-GF0210,40.76936,-73.98480,Manhattan,C4-7,3,107,2 COLUMBUS AVENUE,WEST 59 STREET,WEST 60 STREET,SW,10023,,No,0,Lincoln Square,82519,,04/03/2018,01/23/2018,1085729,1011317501,1014500,"(40.76936432, -73.98479693)",LINK-021736,New Site,11/21/2017,
01/10/2018,mn-08-GF0209,40.76753,-73.95951,Manhattan,C1-9,4,108,226 EAST 70 STREET,2 AVENUE,3 AVENUE,NE,10021,,No,0,Lenox Hill-Roosevelt Island,82512,,03/11/2018,12/22/2017,1072223,1014247501,1012600,"(40.76752558, -73.95951151)",LINK-021735,New Site,11/21/2017,
01/10/2018,mn-08-GF0212,40.77670,-73.95279,Manhattan,C1-9,5,108,1623 2 AVENUE,EAST 84 STREET,EAST 85 STREET,SW,10028,,No,0,Yorkville,82513,,03/11/2018,12/22/2017,1048736,1015300021,1014601,"(40.77669755, -73.95278704)",LINK-021738,New Site,11/21/2017,
01/10/2018,mn-08-GF0211,40.78320,-73.95266,Manhattan,C1-8X,5,108,142 EAST 92 STREET,LEXINGTON AVENUE,3 AVENUE,SE,10128,,No,0,Upper East Side-Carnegie Hill,82374,,03/11/2018,12/22/2017,1048310,1015200050,1015801,"(40.783196, -73.952658)",LINK-021737,New Site,09/28/2017,
02/02/2018,mn-11-GF0252,40.79105,-73.94737,Manhattan,C1-5,8,111,131 EAST 104 STREET,LEXINGTON AVENUE,PARK AVENUE,NW,10029,,No,0,East Harlem South,82369,,04/03/2018,01/23/2018,1081340,1016320015,1016600,"(40.791054, -73.947371)",LINK-021778,New Site,09/28/2017,
01/10/2018,mn-08-GF0218,40.78125,-73.94946,Manhattan,C2-8,5,108,1749 2 AVENUE,EAST 91 STREET,EAST 92 STREET,SW,10128,,No,0,Yorkville,82514,,03/11/2018,12/22/2017,1048914,1015370022,1015400,"(40.78125442, -73.94945977)",LINK-021744,New Site,11/21/2017,
02/02/2018,mn-11-GF0256,40.79809,-73.94234,Manhattan,C1-4,8,111,135 EAST 115 STREET,LEXINGTON AVENUE,PARK AVENUE,NW,10029,,No,0,East Harlem North,82364,,04/03/2018,01/23/2018,1052235,1016430015,1018200,"(40.79809105, -73.94233669)",LINK-021782,New Site,09/28/2017,
10/09/2018,mn-04-GF0217,40.75924,-73.99591,Manhattan,C6-4,3,104,561 10 AVENUE,WEST 41 STREET,WEST 42 STREET,NW,10036,Hudson Yards/Hell's Kitchen,Yes,0,Hudson Yards-Chelsea-Flatiron-Union Square,82359,,12/08/2018,09/12/2018,1087341,1010700029,1011700,"(40.75924406, -73.99591047)",LINK-021743,New Site,09/28/2017,
01/10/2018,mn-08-GF0220,40.76956,-73.95768,Manhattan,C1-9,5,108,1404 2 AVENUE,EAST 73 STREET,EAST 74 STREET,SW,10021,,No,0,Lenox Hill-Roosevelt Island,82518,,03/11/2018,12/22/2017,1044897,1014480001,1012600,"(40.76956295, -73.95767632)",LINK-021746,New Site,11/21/2017,
01/10/2018,mn-08-GF0219,40.78178,-73.94928,Manhattan,C2-8,5,108,1763 2 AVENUE,2 AVENUE,3 AVENUE,SW,10128,,No,0,Yorkville,82520,,03/11/2018,12/22/2017,1048914,1015370022,1015400,"(40.78178157, -73.94928024)",LINK-021745,New Site,11/21/2017,
01/10/2018,mn-08-GF0222,40.78248,-73.94857,Manhattan,C2-8,5,108,1802 2 AVENUE,EAST 93 STREET,EAST 94 STREET,NW,10128,,No,0,Yorkville,82517,,03/11/2018,12/22/2017,1048918,1015397501,1015400,"(40.78248289, -73.94857106)",LINK-021748,New Site,11/21/2017,
02/02/2018,mn-07-GF0223,40.77003,-73.98448,Manhattan,C4-7,3,107,111 WEST 60 STREET,COLUMBUS AVENUE,10 AVENUE,SE,10023,Lincoln Square,Yes,0,Lincoln Square,82516,,04/03/2018,01/23/2018,1028830,1011320001,1014500,"(40.77003295, -73.98447791)",LINK-021749,New Site,11/21/2017,
01/10/2018,mn-08-GF0199,40.77715,-73.95241,Manhattan,C1-9,5,108,1633 2 AVENUE,EAST 85 STREET,EAST 84 STREET,SW,10028,,No,0,Yorkville,82509,,03/11/2018,12/22/2017,1048743,1015300028,1014601,"(40.77714586, -73.95241224)",LINK-021725,New Site,11/21/2017,
02/16/2018,mn-12-GF0161,40.84209,-73.93886,Manhattan,C2-4,10,112,4036 BROADWAY,WEST 170 STREET,WEST 169 STREET,SE,10032,,No,0,Washington Heights South,82360,,04/17/2018,12/06/2017,1063014,1021260001,1025300,"(40.84209479, -73.93886215)",LINK-021531,New Site,09/28/2017,
02/16/2018,mn-12-GF0164,40.84562,-73.93631,Manhattan,C1-4,10,112,1300 ST. NICHOLAS AVENUE,WEST 175 STREET,WEST 176 STREET,NE,10033,,No,0,Washington Heights South,82380,,04/17/2018,12/06/2017,1079885,1021330001,1026100,"(40.84562051, -73.93631011)",LINK-021530,New Site,09/28/2017,
01/10/2018,mn-08-GF0200,40.78374,-73.94766,Manhattan,C2-8,5,108,1837 2 AVENUE,2 AVENUE,3 AVENUE,NW,10128,,No,0,Yorkville,82510,,03/11/2018,12/22/2017,1083228,1015410021,1015601,"(40.78373941, -73.94765838)",LINK-021726,New Site,11/21/2017,
10/09/2018,mn-04-GF0204,40.75865,-73.99603,Manhattan,C2-8,3,104,554 10 AVENUE,WEST 41 STREET,WEST 40 STREET,MIDBLOCK,10018,Hudson Yards/Hell's Kitchen,Yes,0,Clinton,82381,,12/08/2018,10/09/2018,1080922,1010500001,1011500,"(40.75865054, -73.99602721)",LINK-021730,New Site,09/28/2017,
02/16/2018,mn-12-GF0162,40.85365,-73.93031,Manhattan,C1-4,10,112,571 WEST 188 STREET,AUDUBON AVENUE,ST NICHOLAS AVENUE,NE,10040,,No,0,Washington Heights North,82587,,04/17/2018,02/14/2018,1063819,1021580033,1027700,"(40.85364566, -73.93031028)",LINK-021532,New Site,01/09/2018,
01/10/2018,mn-08-GF0206,40.76680,-73.95997,Manhattan,C1-9,4,108,1311 2 AVENUE,EAST 69 STREET,EAST 68 STREET,NE,10065,,No,0,Lenox Hill-Roosevelt Island,82511,,03/11/2018,12/22/2017,1043903,1014230010,1011800,"(40.76680272, -73.95996593)",LINK-021732,New Site,11/21/2017,
02/02/2018,mn-07-GF0208,40.77056,-73.98395,Manhattan,C4-7,3,107,40 COLUMBUS AVENUE,WEST 61 STREET,WEST 62 STREET,MIDBLOCK,10023,Lincoln Square,Yes,0,Lincoln Square,82515,,04/03/2018,01/23/2018,1028830,1011320001,1014500,"(40.77055621, -73.98394815)",LINK-021734,New Site,11/21/2017,
07/19/2017,qu-03-GF44132,40.75543,-73.88558,Queens,C1-2,25,403,81-20A NORTHERN BOULEVARD,82 STREET,81 STREET,,11372,,No,0,Jackson Heights,81984,,09/17/2017,07/19/2017,4028775,4012540006,4028300,"(40.75542514, -73.88558162)",LINK-020890,New Site,06/21/2017,
02/02/2018,BX-06-GF22154,40.84545,-73.89139,Bronx,C4-4A,17,206,690 EAST TREMONT AVENUE,CROTONA AVENUE,BALMONT AVENUE,SW,10457,,No,0,East Tremont,82399,,04/03/2018,01/23/2018,2009898,2029460030,2036901,"(40.84545147, -73.89139143)",LINK-020583,New Site,10/11/2017,
07/19/2017,qu-03-GF44138,40.75567,-73.88333,Queens,C1-2,25,403,84-02 NORTHERN BOULEVARD,84 STREET,85 STREET,,11372,,No,0,Jackson Heights,81987,,09/17/2017,07/19/2017,4035173,4014320001,4028100,"(40.755667, -73.88333)",LINK-020896,New Site,06/21/2017,
02/02/2018,BX-06-GF22153,40.84569,-73.89205,Bronx,C4-4A,17,206,1924 BELMONT AVENUE,EAST TREMONT AVENUE,EAST 176 STREET,SW,10457,,No,0,East Tremont,82498,,04/03/2018,01/23/2018,2009898,2029460030,2036901,"(40.84568543, -73.89205159)",LINK-020582,New Site,11/08/2017,
07/19/2017,qu-03-GF44133,40.75535,-73.88642,Queens,C1-2,25,403,80-28 NORTHERN BOULEVARD,81 STREET,80 STREET,SW,11372,,No,0,Jackson Heights,81985,,09/17/2017,07/19/2017,4028773,4012530001,4028500,"(40.7553507, -73.88641871)",LINK-020891,New Site,06/21/2017,
01/19/2018,qu-07-GF44143,40.76039,-73.84571,Queens,C4-4,21,407,33-01 126 STREET,NORTHERN BOULEVARD,SHEA ROAD,SE,11368,,No,0,park-cemetery-etc-Queens,82507,,03/20/2018,01/19/2018,4045013,4018200001,4038301,"(40.7603902, -73.84571148)",LINK-020901,New Site,11/20/2017,
03/09/2018,BX-01-GF22162,40.81541,-73.91584,Bronx,C4-4,17,201,459 EAST 149 STREET,BERGEN AVENUE,BROOK AVENUE,MIDBLOCK,10455,,No,0,Melrose South-Mott Haven North,82494,,05/08/2018,12/06/2017,2127050,2022947501,2007100,"(40.81540714, -73.91583513)",LINK-020591,New Site,11/08/2017,
09/21/2018,qu-07-GF44150,40.76310,-73.80579,Queens,C1-2,19,407,159-15 NORTHERN BOULEVARD,159 STREET,160 STREET,SE,11358,,No,0,Murray Hill,82603,,11/20/2018,09/12/2018,4119373,4052790001,4117100,"(40.76309592, -73.80579296)",LINK-020908,New Site,02/05/2018,
08/31/2017,BX-01-GF22079,40.80729,-73.91933,Bronx,C1-4,8,201,230 BROOK AVENUE,EAST 137 STREET,EAST 138 STREET,SE,10454,,No,0,Mott Haven-Port Morris,82078,,10/30/2017,08/22/2017,2000035,2022650025,2002500,"(40.80729033, -73.91932645)",LINK-020508,New Site,07/28/2017,
08/31/2017,BX-01-GF22131,40.81307,-73.90726,Bronx,C2-4,8,201,551 WALES AVENUE,EAST 149 STREET,EAST 150 STREET,NW,10455,,No,0,Melrose South-Mott Haven North,82108,,10/30/2017,08/22/2017,2004547,2026410036,2007300,"(40.81307402, -73.90725819)",LINK-020560,New Site,07/28/2017,
01/19/2018,qu-03-GF44146,40.75777,-73.85992,Queens,C2-4,21,403,109-10 NORTHERN BOULEVARD,109 STREET,110 STREET,SW,11368,,No,0,North Corona,82434,,03/20/2018,12/06/2017,4042811,4017240007,4038100,"(40.75776591, -73.85992172)",LINK-020904,New Site,10/19/2017,
03/09/2018,BX-01-GF22083,40.81623,-73.91197,Bronx,C2-4,17,201,633 ST. ANN'S AVENUE,WESTCHESTER AVENUE,RAE STREET,NW,10455,,No,0,Melrose South-Mott Haven North,82617,,05/08/2018,03/09/2018,2001151,2023590130,2007100,"(40.81623483, -73.91196923)",LINK-020512,New Site,02/14/2018,
08/31/2017,BX-01-GF22137,40.81177,-73.90391,Bronx,M1-2,8,201,530 SOUTHERN BOULEVARD,SOUTHERN BOULEVARD,,SW,10455,,No,0,Mott Haven-Port Morris,82112,,10/30/2017,08/22/2017,2004088,2026000153,2003100,"(40.81176861, -73.90391027)",LINK-020566,New Site,07/28/2017,
09/15/2017,qu-03-GF44144,40.75457,-73.89581,Queens,C1-2,25,403,70-05 NORTHERN BOULEVARD,71 STREET,70 STREET,NW,11370,,No,0,Jackson Heights,82173,,11/14/2017,09/13/2017,4026329,4011660037,4030902,"(40.75456667, -73.89580526)",LINK-020902,New Site,08/16/2017,
03/09/2018,BX-01-GF22088,40.81797,-73.90570,Bronx,C2-4,17,201,765 EAST 156 STREET,WESTCHESTER AVENUE,FOREST AVENUE,SW,10455,,No,0,Melrose South-Mott Haven North,82618,,05/08/2018,03/09/2018,2004571,2026450043,2007500,"(40.8179661, -73.90569903)",LINK-020517,New Site,02/14/2018,
10/02/2017,BX-04-GF22139,40.83516,-73.91204,Bronx,C2-4,16,204,1295 COLLEGE AVENUE,EAST 169 STREET,EAST 170 STREET,,10456,,No,0,East Concourse-Concourse Village,82161,,12/01/2017,10/02/2017,2000000,2027850075,2017702,"(40.83516227, -73.91204423)",LINK-020568,New Site,08/11/2017,
03/09/2018,BX-01-GF22090,40.81815,-73.90512,Bronx,C2-4,17,201,755 WESTCHESTER AVENUE,TINTON AVENUE,EAST 156 STREET,N,10456,,No,0,Melrose South-Mott Haven North,82625,,05/08/2018,03/09/2018,2004690,2026550030,2007700,"(40.81814626, -73.90511862)",LINK-020519,New Site,02/14/2018,
08/31/2017,BX-01-GF22142,40.82159,-73.91505,Bronx,C1-4,17,201,760 MELROSE AVENUE,MELROSE AVENUE,ELTON AVENUE,SE,10451,,No,0,Melrose South-Mott Haven North,82163,,10/30/2017,08/31/2017,2114124,2023780001,2006900,"(40.82159005, -73.9150454)",LINK-020571,New Site,08/11/2017,
03/09/2018,BX-01-GF22091,40.81870,-73.90386,Bronx,C2-4,17,201,785 WESTCHESTER AVENUE,UNION AVENUE,TINTON AVENUE,N,10456,,No,0,Melrose South-Mott Haven North,82626,,05/08/2018,03/09/2018,2088184,2026550022,2007700,"(40.81869616, -73.90385548)",LINK-020520,New Site,02/14/2018,
09/21/2018,qu-07-GF44401,40.76501,-73.81963,Queens,C1-2,20,407,146-26 NORTHERN BOULEVARD,146 STREET,147 STREET,SW,11354,,No,0,Murray Hill,82602,,11/20/2018,09/12/2018,4113425,4050140040,4116300,"(40.76500902, -73.81962914)",LINK-020886,New Site,02/05/2018,
07/19/2017,qu-03-GF44131,40.75528,-73.88706,Queens,C1-2,25,403,80-02 NORTHERN BOULEVARD,80 STREET,81 STREET,,11372,,No,0,Jackson Heights,81983,,09/17/2017,07/19/2017,4028773,4012530001,4028500,"(40.755276, -73.887065)",LINK-020889,New Site,06/21/2017,
09/14/2017,BX-03-GF22098,40.82423,-73.91363,Bronx,C1-4,17,203,401 EAST 161 STREET,MELROSE AVENUE,ELTON AVENUE,NE,10451,,No,0,Morrisania-Melrose,82157,,11/13/2017,08/31/2017,2001502,2023830001,2014100,"(40.82422829, -73.91363185)",LINK-020527,New Site,08/11/2017,
01/19/2018,qu-03-GF44215,40.75730,-73.86782,Queens,C2-4,21,403,100-18 NORTHERN BOULEVARD,101 STREET,100 STREET,SW,11368,,No,0,North Corona,82455,,03/20/2018,12/06/2017,4042514,4017150008,4037700,"(40.75730069, -73.86781689)",LINK-020973,New Site,10/23/2017,
11/03/2017,qu-02-GF44214,40.74097,-73.91807,Queens,C1-3,26,402,47-02 47 AVENUE,47 STREET,48 STREET,SE,11377,,No,0,Hunters Point-Sunnyside-West Maspeth,82452,,01/02/2018,11/09/2017,4052900,4022850022,4023500,"(40.74096743, -73.91807224)",LINK-020972,New Site,10/11/2017,
09/21/2018,qu-07-GF44219,40.76524,-73.81664,Queens,C2-2,20,407,149-06 NORTHERN BOULEVARD,149 STREET,149 PLACE,MIDBLOCK,11354,,No,0,Murray Hill,82605,,11/20/2018,09/12/2018,4595272,4050177503,4115700,"(40.76523984, -73.81664344)",LINK-020977,New Site,02/05/2018,
09/15/2017,qu-03-GF44218,40.75471,-73.89450,Queens,C1-2,25,403,72-09 NORTHERN BOULEVARD,72 STREET,73 STREET,NE,11370,,No,0,Jackson Heights,82174,,11/14/2017,09/13/2017,4026458,4011680033,4030902,"(40.75471391, -73.89449796)",LINK-020976,New Site,08/16/2017,
09/21/2018,qu-07-GF44223,40.76462,-73.81119,Queens,C2-2,20,407,153-18 NORTHERN BOULEVARD,153 STREET,154 STREET,SW,11354,,No,0,Murray Hill,82607,,11/20/2018,09/12/2018,4438171,4052660019,4115500,"(40.76462392, -73.81118914)",LINK-020981,New Site,02/05/2018,
09/21/2018,qu-07-GF44222,40.76478,-73.81205,Queens,C2-2,20,407,153-02 NORTHERN BOULEVARD,153 STREET,154 STREET,MIDBLOCK,11354,,No,0,Murray Hill,82606,,11/20/2018,09/12/2018,4119194,4052660011,4115500,"(40.76477779, -73.81204552)",LINK-020980,New Site,02/05/2018,
07/19/2017,qu-03-GF44182,40.75603,-73.87888,Queens,C1-2,25,403,88-16 NORTHERN BOULEVARD,NORTHERN BOULEVARD,34 AVENUE,,11372,,No,0,Jackson Heights,81999,,09/17/2017,07/19/2017,4437127,4014360006,4027700,"(40.756031, -73.878884)",LINK-020940,New Site,06/21/2017,
09/21/2018,qu-07-GF44224,40.76342,-73.80742,Queens,C1-2,20,407,157-26 NORTHERN BOULEVARD,157 STREET,158 STREET,SW,11354,,No,0,Murray Hill,82608,,11/20/2018,09/12/2018,4119353,4052760024,4117100,"(40.7634158, -73.80741661)",LINK-020982,New Site,02/05/2018,
08/14/2017,BX-02-GF22164,40.81163,-73.90327,Bronx,C8-3,8,202,869 EAST 149 STREET,EAST 149 STREET,AVENUE ST JOHN,NE,10455,,No,0,Longwood,82115,,10/13/2017,08/11/2017,2096003,2026030051,2008300,"(40.81163401, -73.90326596)",LINK-020593,New Site,07/28/2017,
08/31/2017,BX-01-GF22172,40.80496,-73.91484,Bronx,M1-2,8,201,673 EAST 137 STREET,CYPRESS AVENUE,,NE,10454,,No,0,Mott Haven-Port Morris,82124,,10/30/2017,08/22/2017,2003798,2025660039,2002702,"(40.80496463, -73.91484156)",LINK-020601,New Site,07/28/2017,
08/31/2017,BX-01-GF22176,40.81311,-73.92598,Bronx,M1-4/R7A,8,201,339 MORRIS AVENUE,MORRIS AVENUE,RIDER AVENUE,NW,10451,,No,0,Mott Haven-Port Morris,82121,,10/30/2017,08/22/2017,2000957,2023330070,2005100,"(40.81311299, -73.92597821)",LINK-020605,New Site,07/28/2017,
08/31/2017,BX-01-GF22173,40.80423,-73.91523,Bronx,M1-2,8,201,190 CYPRESS AVENUE,CYPRESS AVENUE,BRUCKNER BOULEVARD,NE,10454,,No,0,Mott Haven-Port Morris,82083,,10/30/2017,08/22/2017,2000000,2025650028,2002701,"(40.80423313, -73.91523055)",LINK-020602,New Site,07/28/2017,
12/01/2017,qu-01-GF44205,40.77330,-73.90651,Queens,C2-3,22,401,38-01 DITMARS BOULEVARD,38 STREET,STEINWAY STREET,SE,11105,,No,0,Steinway,82437,,01/30/2018,11/29/2017,4015824,4008050032,4012100,"(40.7732961247542, -73.90651488984741)",LINK-020963,New Site,10/19/2017,
12/01/2017,qu-01-GF44165,40.75249,-73.93243,Queens,M1-3/R7X,26,401,32-03 39 AVENUE,31 STREET,32 STREET,NW,11101,,No,0,Queensbridge-Ravenswood-Long Island City,82386,,01/30/2018,11/29/2017,4541847,4003820029,4003100,"(40.75249046, -73.9324322)",LINK-020923,New Site,10/06/2017,
07/19/2017,qu-03-GF44167,40.75530,-73.88889,Queens,C8-1,25,403,78-15 NORTHERN BOULEVARD,78 STREET,79 STREET,,11370,,No,0,Jackson Heights,81988,,09/17/2017,07/19/2017,4026787,4011740035,4030903,"(40.755296, -73.888892)",LINK-020925,New Site,06/21/2017,
09/15/2017,qu-03-GF44134,40.75428,-73.89665,Queens,C2-2,25,403,69-02 NORTHERN BOULEVARD,70 STREET,69 STREET,SW,11377,,No,0,Jackson Heights,82169,,11/14/2017,09/13/2017,4028472,4012420001,4029100,"(40.75427503, -73.89665217)",LINK-020892,New Site,08/16/2017,
07/19/2017,qu-03-GF44136,40.75557,-73.88427,Queens,C1-2,25,403,83-02 NORTHERN BOULEVARD,83 STREET,84 STREET,,11372,,No,0,Jackson Heights,81986,,09/17/2017,07/19/2017,4035149,4014310001,4028100,"(40.755571, -73.884269)",LINK-020894,New Site,06/21/2017,
02/02/2018,mn-07-GF0088,40.77957,-73.97736,Manhattan,C1-8A,6,107,322 COLUMBUS AVENUE,WEST 76 STREET,WEST 75 STREET,NW,10023,Columbus Avenue,Yes,1,Upper West Side,82363,,04/03/2018,01/23/2018,1030136,1011470030,1016100,"(40.77956501, -73.97735812)",LINK-020425,New Site,09/28/2017,
02/16/2018,mn-12-GF0058,40.84164,-73.93911,Manhattan,C2-4,10,112,565 WEST 169 STREET,BROADWAY,AUDUBON AVENUE,NE,10032,,No,0,Washington Heights South,82418,,04/17/2018,12/06/2017,1063014,1021260001,1025300,"(40.84164226, -73.93911127)",LINK-020296,New Site,09/28/2017,
12/15/2017,mn-01-GF0126,40.71485,-74.00131,Manhattan,C6-4,1,101,141 WORTH STREET,CENTRE STREET,BAXTER STREET,,10013,Chinatown,Yes,1,Chinatown,82054,,02/13/2018,12/06/2017,1001830,1001660027,1002900,"(40.71484559, -74.00131165)",LINK-020463,New Site,07/05/2017,
12/15/2017,mn-02-GF0093,40.73721,-74.00139,Manhattan,C2-7,3,102,76 GREENWICH AVENUE,BANK STREET,WEST 12 STREET,SW,10011,,No,1,West Village,82412,,02/13/2018,12/06/2017,1010988,1006170001,1007700,"(40.73721099, -74.00139398)",LINK-020430,New Site,10/11/2017,
12/15/2017,mn-02-GF0095,40.72950,-74.00491,Manhattan,C2-6,3,102,75 CARMINE STREET,7 AVENUE,BEDFORD STREET,SE,10014,,No,0,West Village,82407,,02/13/2018,12/06/2017,1066793,1005287501,1006700,"(40.72949855, -74.00490616)",LINK-020432,New Site,10/10/2017,
12/15/2017,mn-02-GF0094,40.73189,-74.00367,Manhattan,C2-6,3,102,61 7 AVENUE SOUTH,COMMERCE STREET,BLEECKER STREET,SE,10014,,No,1,West Village,82406,,02/13/2018,12/06/2017,1009947,1005870021,1006700,"(40.73189179, -74.0036707)",LINK-020431,New Site,10/10/2017,
01/10/2018,mn-08-GF0073,40.78696,-73.95448,Manhattan,C1-5,4,108,1366 MADISON AVENUE,95 STREET,96 STREET,MIDBLOCK,10128,,No,1,Upper East Side-Carnegie Hill,82367,,03/11/2018,12/22/2017,1047436,1015070056,1016001,"(40.78696469, -73.95448023)",LINK-020410,New Site,09/28/2017,
02/02/2018,mn-11-GF0074,40.79117,-73.95141,Manhattan,C2-5,8,111,1490 MADISON AVENUE,102 STREET,103 STREET,NE,10029,,No,0,East Harlem South,82378,,04/03/2018,01/23/2018,1051493,1016080017,1016800,"(40.79117041, -73.95140762)",LINK-020411,New Site,09/28/2017,
12/15/2017,mn-02-GF0076,40.72426,-74.00500,Manhattan,M1-6,3,102,121 6 AVENUE,6 AVENUE,VARICK STREET,SW,10013,Hudson Square,Yes,0,SoHo-TriBeCa-Civic Center-Little Italy,82092,,02/13/2018,12/06/2017,1083493,1004777501,1003700,"(40.72426124, -74.00499516)",LINK-020413,New Site,07/28/2017,
10/02/2017,mn-08-GF0078,40.77542,-73.95029,Manhattan,C1-9,5,108,1608 1 AVENUE,EAST 84 STREET,EAST 83 STREET,MIDBLOCK,10028,,No,0,Yorkville,82058,,12/01/2017,09/28/2017,1085139,1015630004,1013600,"(40.77541825, -73.9502902)",LINK-020415,New Site,07/28/2017,
12/15/2017,mn-01-GF0116,40.72172,-74.00613,Manhattan,C6-2A,1,101,13 LAIGHT STREET,VARICK STREET,ST. JOHNS LANE,,10013,,No,0,SoHo-TriBeCa-Civic Center-Little Italy,82018,,02/13/2018,12/06/2017,1002735,1002120018,1003300,"(40.72172363, -74.00612791)",LINK-020453,New Site,07/05/2017,
12/15/2017,mn-01-GF0121,40.70668,-74.01250,Manhattan,C5-5,1,101,56 BROADWAY,EXCHANGE PLACE,MORRIS AVENUE,SE,10004,Alliance for Downtown NY,Yes,0,Battery Park City-Lower Manhattan,82010,,02/13/2018,12/06/2017,1000814,1000220028,1000900,"(40.70667684, -74.01249715)",LINK-020458,New Site,06/30/2017,
12/15/2017,mn-02-GF0085,40.73674,-74.00130,Manhattan,C2-6,3,102,75 GREENWICH AVENUE,WEST 11 STREET,7 AVENUE,NW,10014,,No,1,West Village,82411,,02/13/2018,12/06/2017,1010989,1006140061,1007700,"(40.73674366, -74.00129751)",LINK-020422,New Site,10/11/2017,
02/16/2018,mn-12-GF0153,40.84562,-73.93875,Manhattan,C1-4,10,112,4121 BROADWAY,WEST 174 STREET,WEST 175 STREET,NW,10033,,No,0,Washington Heights South,82361,,04/17/2018,12/06/2017,1063518,1021420244,1026300,"(40.84561736, -73.93874611)",LINK-020293,New Site,09/28/2017,
12/15/2017,mn-01-GF0086,40.71131,-74.01012,Manhattan,C5-5,1,101,184 FULTON STREET,CHURCH STREET,BROADWAY,SW,10007,Alliance for Downtown NY,Yes,0,Battery Park City-Lower Manhattan,82022,,02/13/2018,12/06/2017,1075702,1000800004,1001300,"(40.71131055379691, -74.0101196914062)",LINK-020423,New Site,07/05/2017,
12/15/2017,mn-01-GF0114,40.71565,-74.00901,Manhattan,C6-3A,1,101,95 WEST BROADWAY,CHAMBERS STREET,READE STREET,,10013,,No,1,SoHo-TriBeCa-Civic Center-Little Italy,82053,,02/13/2018,12/06/2017,1001584,1001450012,1002100,"(40.71564579, -74.00901213)",LINK-020451,New Site,07/05/2017,
08/31/2017,BX-01-GF22114,40.81334,-73.91004,Bronx,C2-4,8,201,674 EAST 149 STREET,TRINITY AVENUE,JACKSON AVENUE,SE,10455,,No,0,Mott Haven-Port Morris,82098,,10/30/2017,08/22/2017,2091283,2025570083,2003500,"(40.81334437, -73.91003882)",LINK-020543,New Site,07/28/2017,
08/31/2017,BX-01-GF22181,40.81280,-73.90647,Bronx,C1-4,8,201,787 EAST 149 STREET,TINTON AVENUE,WALES AVENUE,NW,10455,,No,0,Melrose South-Mott Haven North,82067,,10/30/2017,08/22/2017,2086465,2026530001,2007900,"(40.81280294, -73.90646979)",LINK-020494,New Site,07/28/2017,
03/09/2018,BX-01-GF22116,40.81587,-73.90894,Bronx,C2-4,8,201,642 WESTCHESTER AVENUE,TRINITY AVENUE,JACKSON AVENUE,SE,10455,,No,0,Melrose South-Mott Haven North,82627,,05/08/2018,03/09/2018,2004428,2026230191,2007300,"(40.81586572, -73.90894428)",LINK-020545,New Site,02/14/2018,
08/31/2017,BX-01-GF22070,40.80515,-73.91372,Bronx,C1-4,8,201,690 EAST 138 STREET,JACKSON AVENUE,CYPRESS AVENUE,MIDBLOCK,10454,,No,0,Mott Haven-Port Morris,82073,,10/30/2017,08/22/2017,2091290,2025660010,2002702,"(40.80515192, -73.91371794)",LINK-020499,New Site,07/28/2017,
08/31/2017,BX-01-GF22069,40.80546,-73.91468,Bronx,C1-4,8,201,235 CYPRESS AVENUE,EAST 137 STREET,EAST 138 STREET,SW,10454,,No,0,Mott Haven-Port Morris,82072,,10/30/2017,08/22/2017,2003611,2025500038,2002701,"(40.80546084, -73.91468259)",LINK-020498,New Site,07/28/2017,
08/31/2017,BX-01-GF22118,40.80770,-73.92012,Bronx,C1-4,8,201,490 EAST 138 STREET,EAST 138 STREET,EAST 137 STREET,SE,10454,,No,0,Mott Haven-Port Morris,82100,,10/30/2017,08/22/2017,2097017,2022650001,2002500,"(40.80769621, -73.92011917)",LINK-020547,New Site,07/28/2017,
08/31/2017,BX-01-GF22072,40.80612,-73.91557,Bronx,C1-4,8,201,623 EAST 138 STREET,CYRPRESS AVENUE,ST. ANN'S AVENUE,MIDBLOCK,10454,,No,0,Mott Haven-Port Morris,82074,,10/30/2017,08/22/2017,2003631,2025510058,2002702,"(40.80611602, -73.91557322)",LINK-020501,New Site,07/28/2017,
08/31/2017,BX-01-GF22129,40.81469,-73.91388,Bronx,C1-4,17,201,541 EAST 149 STREET,BROOK AVENUE,ST ANNS AVENUE,MIDBLOCK,10455,,No,0,Melrose South-Mott Haven North,82107,,10/30/2017,08/22/2017,2117109,2022760050,2007100,"(40.81468726, -73.91388351)",LINK-020558,New Site,07/28/2017,
08/31/2017,BX-01-GF22076,40.81406,-73.91204,Bronx,C2-1,17,201,600 ST. ANN'S AVENUE,ST. ANN'S AVENUE,EAGLE AVENUE,NW,10455,,No,0,Melrose South-Mott Haven North,82076,,10/30/2017,08/22/2017,2004314,2026160001,2007300,"(40.81405902, -73.91204432)",LINK-020505,New Site,07/28/2017,
02/16/2018,BX-04-GF22127,40.83346,-73.91408,Bronx,C1-4,16,204,1220 MORRIS AVENUE,EAST 167 STREET,EAST 168 STREET,N,10456,,No,0,East Concourse-Concourse Village,82428,,04/17/2018,02/14/2018,2002624,2024500056,2017901,"(40.83345607, -73.9140803)",LINK-020556,New Site,10/11/2017,
12/15/2017,mn-02-GF0098,40.73014,-74.00467,Manhattan,C2-6,3,102,15 7 AVENUE SOUTH,LEROY STREET,CARMINE STREET,SE,10014,,No,0,West Village,82408,,02/13/2018,12/06/2017,1077935,1005820026,1006700,"(40.73014393, -74.00466812)",LINK-020435,New Site,10/10/2017,
12/15/2017,mn-01-GF0101,40.71910,-74.00718,Manhattan,C6-2A,1,101,137 FRANKLIN STREET,VARICK STREET,HUDSON STREET,,10013,,No,1,SoHo-TriBeCa-Civic Center-Little Italy,82020,,02/13/2018,12/06/2017,1002018,1001790068,1003300,"(40.71909865, -74.00718471)",LINK-020438,New Site,07/05/2017,
12/15/2017,mn-02-GF0100,40.73719,-74.00564,Manhattan,C1-6,3,102,601 HUDSON STREET,8 AVENUE,WEST 12 STREET,MIDBLOCK,10014,,No,1,West Village,82413,,02/13/2018,12/06/2017,1011372,1006240024,1007700,"(40.73719372, -74.00564368)",LINK-020437,New Site,10/11/2017,
12/15/2017,mn-01-GF0103,40.72167,-74.00554,Manhattan,C6-2A,1,101,7 LAIGHT STREET,6 AVENUE,ST JOHNS LANE,SW,10013,,No,0,SoHo-TriBeCa-Civic Center-Little Italy,82019,,02/13/2018,12/06/2017,1002736,1002127503,1003300,"(40.7216666, -74.00553964)",LINK-020440,New Site,07/05/2017,
12/15/2017,mn-02-GF0140,40.72245,-73.99940,Manhattan,M1-5B,1,102,503 BROADWAY,SPRING STREET,BROOME STREET,MIDBLOCK,10012,SoHo Broadway,Yes,1,SoHo-TriBeCa-Civic Center-Little Italy,82390,,02/13/2018,12/06/2017,1007251,1004847502,1004900,"(40.72245337, -73.999404)",LINK-020477,New Site,10/06/2017,
12/15/2017,mn-02-GF0144,40.73491,-74.00020,Manhattan,C1-6,3,102,33 GREENWICH AVENUE,WEST 10 STREET,CHARLES STREET,NW,10014,,No,1,West Village,82416,,02/13/2018,12/06/2017,1010852,1006110065,1007100,"(40.73491222, -74.00020406)",LINK-020481,New Site,10/11/2017,
12/15/2017,mn-02-GF0143,40.72537,-74.00463,Manhattan,M1-6,3,102,155 6 AVENUE,SPRING STREET,DOMINICK STREET,SW,10013,Hudson Square,Yes,0,SoHo-TriBeCa-Civic Center-Little Italy,82065,,02/13/2018,12/06/2017,1007385,1004910046,1003700,"(40.72537068, -74.00463448)",LINK-020480,New Site,07/28/2017,
02/02/2018,BX-06-GF22106,40.84219,-73.88477,Bronx,C1-4,17,206,892 EAST TREMONT AVENUE,HONEYWELL AVENUE,DALY AVENUE,MIDBLOCK,10460,,No,0,East Tremont,82398,,04/03/2018,01/23/2018,2010623,2029850045,2035900,"(40.8421908, -73.88477024)",LINK-020535,New Site,10/11/2017,
12/15/2017,mn-02-GF0109,40.73339,-73.99317,Manhattan,C1-7,2,102,81 UNIVERSITY PLACE,EAST 11 STREET,EAST 12 STREET,NE,10003,Village,Yes,0,West Village,82414,,02/13/2018,12/06/2017,1009127,1005630001,1006100,"(40.73339177, -73.99316634)",LINK-020446,New Site,10/11/2017,
08/31/2017,BX-01-GF22109,40.82066,-73.91559,Bronx,C1-4,17,201,736 MELROSE AVENUE,EAST 156 STREET,EAST 155 STREET,SE,10455,,No,0,Melrose South-Mott Haven North,82158,,10/30/2017,08/31/2017,2001404,2023770007,2006900,"(40.82066121, -73.91558539)",LINK-020538,New Site,08/11/2017,
12/15/2017,mn-02-GF0108,40.72225,-74.00572,Manhattan,M1-6,1,102,417 CANAL STREET,SULLIVAN STREET,6 AVENUE,NW,10013,,No,0,SoHo-TriBeCa-Civic Center-Little Italy,82405,,02/13/2018,12/06/2017,1088405,1002270080,1003700,"(40.7222524, -74.00571676)",LINK-020445,New Site,10/10/2017,
08/31/2017,BX-01-GF22111,40.81367,-73.91068,Bronx,C2-1,17,201,550 CAULDWELL AVENUE,CAULDWELL AVENUE,TRINITY AVENUE,NE,10455,,No,0,Melrose South-Mott Haven North,82095,,10/30/2017,08/22/2017,2091318,2026230135,2007300,"(40.81367118, -73.91068124)",LINK-020540,New Site,07/28/2017,
02/02/2018,mn-11-GF0149,40.80034,-73.93565,Manhattan,C1-5,8,111,251 EAST 121 STREET,2 AVENUE,3 AVENUE,NW,10035,,No,0,East Harlem North,82450,,04/03/2018,01/23/2018,1054624,1017860022,1019400,"(40.80033926, -73.93565326)",LINK-020486,New Site,10/18/2017,
11/16/2017,bk-01-GF33255,40.70328,-73.93260,Brooklyn,M1-2,34,301,997 FLUSHING AVENUE,BOGART STREET,FORREST STREET,N,11206,,No,0,Bushwick North,82309,,01/15/2018,11/06/2017,3071648,3031250007,3045300,"(40.70328489, -73.93260275)",LINK-021191,New Site,09/07/2017,
12/14/2017,bk-02-GF33212,40.69219,-73.98706,Brooklyn,C6-4.5,33,302,44 WILLLOUGHBY STREET,JAY STREET,,SE,11201,MetroTech,Yes,0,DUMBO-Vinegar Hill-Downtown Brooklyn-Boerum Hill,82330,,02/12/2018,12/06/2017,3000389,3001510022,3001100,"(40.69219182, -73.98705896)",LINK-021148,New Site,09/25/2017,
07/20/2017,bk-01-GF33263,40.71850,-73.96335,Brooklyn,M1-2/R6A,33,301,36 NORTH 4 STREET,NORTH 4 STREET,,,11249,,No,0,North Side-South Side,81972,,09/18/2017,07/20/2017,3343247,3023490015,3055500,"(40.71850276, -73.96335474)",LINK-021199,New Site,06/08/2017,
07/20/2017,bk-01-GF33265,40.72027,-73.96156,Brooklyn,M1-2/R6A,33,301,59 NORTH 7 STREET,KENT AVENUE,WYTHE AVENUE,SE,11249,,No,0,North Side-South Side,81978,,09/18/2017,07/20/2017,3061882,3023170035,3055700,"(40.72027267, -73.96155613)",LINK-021201,New Site,06/08/2017,
12/14/2017,bk-02-GF33271,40.68339,-73.98177,Brooklyn,C2-4,33,302,316 BERGEN STREET,3 AVENUE,4 AVENUE,,11217,,No,0,DUMBO-Vinegar Hill-Downtown Brooklyn-Boerum Hill,82185,,02/12/2018,12/06/2017,3001437,3001980001,3003900,"(40.6833913, -73.98176877)",LINK-021207,New Site,08/16/2017,
07/20/2017,bk-01-GF33224,40.71566,-73.96227,Brooklyn,M1-2/R6A,34,301,222 BERRY STREET,NORTH 1 STREET,METROPOLITAN AVENUE,,11249,,No,0,North Side-South Side,81932,,09/18/2017,07/20/2017,3062441,3023640024,3055500,"(40.71566291, -73.9622738)",LINK-021160,New Site,05/24/2017,
12/05/2017,bk-06-GF33223,40.66883,-73.99308,Brooklyn,M1-2,39,306,531 3 AVENUE,13 STREET,14 STREET,SE,11215,,No,0,Park Slope-Gowanus,82184,,02/03/2018,12/01/2017,3396867,3010330006,3011700,"(40.66883491, -73.99307618)",LINK-021159,New Site,08/16/2017,
07/20/2017,bk-01-GF33225,40.71606,-73.96184,Brooklyn,M1-2/R6A,34,301,218 BERRY STREET,METROPOLITAN AVENUE,NORTH 3 STREET,,11249,,No,0,North Side-South Side,81933,,09/18/2017,07/20/2017,3062401,3023580020,3055500,"(40.71606498, -73.96183953)",LINK-021161,New Site,05/24/2017,
10/13/2017,bk-14-GF33276,40.63482,-73.94992,Brooklyn,C2-4,45,314,1476 FLATBUSH AVENUE,FARRAGUT ROAD,EAST 28 STREET,SW,11210,Flatbush-Nostrand Junction,Yes,0,Flatbush,82244,,12/12/2017,10/04/2017,3121650,3052490067,3077000,"(40.63481915, -73.94992426)",LINK-021212,New Site,08/25/2017,
12/14/2017,bk-02-GF33337,40.69470,-73.98322,Brooklyn,C6-4,35,302,325 GOLD STREET,JOHNSON STREET,FLATBUSH AVENUE EXTENSION,SE,11201,MetroTech,Yes,0,DUMBO-Vinegar Hill-Downtown Brooklyn-Boerum Hill,82345,,02/12/2018,12/06/2017,3332462,3020490008,3001500,"(40.69469702, -73.98322004)",LINK-021273,New Site,10/02/2017,
12/14/2017,bk-02-GF33278,40.68595,-73.98254,Brooklyn,C2-4,33,302,472 ATLANTIC AVENUE,NEVINS STREET,3 AVENUE,SE,11217,Atlantic Avenue,Yes,0,DUMBO-Vinegar Hill-Downtown Brooklyn-Boerum Hill,82352,,02/12/2018,12/06/2017,3424212,3001850004,3003900,"(40.68594957, -73.98254254)",LINK-021214,New Site,10/02/2017,
12/01/2017,qu-01-GF44330,40.77000,-73.91754,Queens,C4-3,22,401,31-98 ASTORIA BOULEVARD SOUTH,32 STREET,31 STREET,NE,11103,,No,0,Steinway,82432,,01/30/2018,11/29/2017,4008705,4006200073,4012500,"(40.769996, -73.917545)",LINK-021088,New Site,10/03/2017,
12/14/2017,bk-02-GF33246,40.68984,-73.98025,Brooklyn,C6-4,35,302,80 DEKALB AVENUE,HUDSON AVENUE,ROCKWELL PLACE,SE,11201,MetroTech,Yes,0,Fort Greene,82325,,02/12/2018,12/06/2017,3391840,3020940010,3003300,"(40.68983596, -73.98024957)",LINK-021182,New Site,09/25/2017,
09/21/2018,qu-07-GF44329,40.76337,-73.82957,Queens,C4-3,20,407,137-40 NORTHERN BOULEVARD,LINDEN PLACE,LEAVITT STREET,SW,11354,,No,0,Flushing,82614,,11/20/2018,09/12/2018,4112350,4049770037,4086900,"(40.76337149, -73.82956721)",LINK-021087,New Site,02/05/2018,
12/01/2017,bk-08-GF33248,40.68105,-73.96753,Brooklyn,M1-1,35,308,547 VANDERBILT AVENUE,PACIFIC STREET,ATLANTIC AVENUE,NE,11238,,No,0,Prospect Heights,82322,,01/30/2018,10/11/2017,3325227,3011220071,3020300,"(40.68105309, -73.96752808)",LINK-021184,New Site,09/15/2017,
09/21/2018,bk-02-GF33250,40.69043,-73.99435,Brooklyn,C1-3,33,302,200 CLINTON STREET,ATLANTIC AVENUE,STATE STREET,NW,11201,Atlantic Avenue,Yes,1,Brooklyn Heights-Cobble Hill,82401,,11/20/2018,09/12/2018,3002734,3002750001,3000700,"(40.69043372, -73.99435078)",LINK-021186,New Site,10/02/2017,
11/16/2017,bk-01-GF33197,40.70353,-73.94695,Brooklyn,C2-3,33,301,610 BROADWAY,WALTON STREET,MOORE STREET,SE,11206,,No,0,Bedford,82205,,01/15/2018,11/06/2017,3335406,3022517504,3050700,"(40.70353, -73.94695)",LINK-021133,New Site,08/21/2017,
01/19/2018,qu-07-GF44337,40.76029,-73.83507,Queens,C4-2,20,407,3630 COLLEGE POINT BOULEVARD,37 AVENUE,36 ROAD,NW,11354,,No,0,Flushing,82489,,03/20/2018,12/06/2017,4112219,4049630085,4087100,"(40.76028801, -73.83506646)",LINK-021095,New Site,11/08/2017,
11/16/2017,bk-04-GF33203,40.69735,-73.93575,Brooklyn,C2-3,34,304,929 BROADWAY,MELROSE STREET,JEFFERSON STREET,,11206,,No,0,Bushwick South,82207,,01/15/2018,11/06/2017,3072002,3031600008,3038900,"(40.69734504, -73.9357527)",LINK-021139,New Site,08/21/2017,
10/13/2017,bk-14-GF33252,40.63678,-73.95170,Brooklyn,C2-4,45,314,1395 FLATBUSH AVENUE,EAST 26 STREET,FARRAGUT ROAD,SW,11210,,No,0,Flatbush,82241,,12/12/2017,10/04/2017,3120879,3052280013,3078800,"(40.636785, -73.95169958)",LINK-021188,New Site,08/25/2017,
01/19/2018,qu-07-GF44336,40.75901,-73.83467,Queens,C4-2,20,407,3752 COLLEGE POINT BOULEVARD,39 AVENUE,37 AVENUE,NW,11354,,No,0,Flushing,82487,,03/20/2018,12/06/2017,4112200,4049630075,4087100,"(40.75901188, -73.83467085)",LINK-021094,New Site,11/06/2017,
10/13/2017,bk-14-GF33253,40.64146,-73.95646,Brooklyn,C2-4,45,314,1175 FLATBUSH AVENUE,VANDERVEER PLACE,DITMAS AVENUE,MIDBLOCK,11226,,No,0,Erasmus,82242,,12/12/2017,10/04/2017,3119639,3051880020,3079000,"(40.64145926, -73.95645591)",LINK-021189,New Site,08/25/2017,
11/16/2017,bk-04-GF33165,40.70042,-73.94123,Brooklyn,C4-3,34,304,769 BROADWAY,SUMNER PLACE,FLUSHING AVENUE,,11206,,No,0,Bushwick South,82202,,01/15/2018,11/06/2017,3071669,3031300001,3038900,"(40.70041567, -73.94123236)",LINK-021101,New Site,08/21/2017,
10/13/2017,bk-18-GF33209,40.62996,-73.94447,Brooklyn,C2-2,45,318,1655 FLATBUSH AVENUE,NEW YORK AVENUE,AURELIA COURT,SE,11210,,No,0,Flatlands,82236,,12/12/2017,10/04/2017,3206459,3075790010,3077600,"(40.62995844, -73.94446611)",LINK-021145,New Site,08/25/2017,
12/14/2017,bk-02-GF33376,40.69225,-73.98428,Brooklyn,C6-4,33,302,199 DUFFIELD STREET,MYRTLE AVENUE,WILLOUGHBY STREET,NE,11201,MetroTech,Yes,0,DUMBO-Vinegar Hill-Downtown Brooklyn-Boerum Hill,82335,,02/12/2018,12/06/2017,3319505,3020590001,3001500,"(40.69225221, -73.98427837)",LINK-021312,New Site,09/25/2017,
07/20/2017,bk-01-GF33355,40.71590,-73.95303,Brooklyn,M1-2/R6A,33,301,275 NORTH 8 STREET,HAVEMEYER STREET,MEEKER AVENUE,,11211,,No,0,North Side-South Side,81952,,09/18/2017,07/20/2017,3061862,3023150033,3051900,"(40.71589993, -73.9530322)",LINK-021291,New Site,06/08/2017,
12/14/2017,bk-02-GF33377,40.69215,-73.98354,Brooklyn,C6-4,33,302,135 WILLOUGHBY STREET,ALBEE SQUARE WEST,DUFFIELD STREET,NW,11201,MetroTech,Yes,0,DUMBO-Vinegar Hill-Downtown Brooklyn-Boerum Hill,82336,,02/12/2018,12/06/2017,3319505,3020590001,3001500,"(40.69215058, -73.98353698)",LINK-021313,New Site,09/25/2017,
12/14/2017,bk-02-GF33316,40.69346,-73.98006,Brooklyn,C2-4,35,302,180 MYRTLE AVENUE,NAVY WALK,FLEET PLACE,MIDBLOCK,11201,Myrtle Avenue Brooklyn,Yes,0,Fort Greene,82349,,02/12/2018,12/06/2017,3398227,3020610101,3003100,"(40.69345791, -73.98005561)",LINK-021252,New Site,10/02/2017,
07/20/2017,bk-01-GF33356,40.71664,-73.95443,Brooklyn,M1-2/R6A,33,301,234 NORTH 8 STREET,ROEBLING STREET,HAVEMEYER STREET,,11211,,No,0,North Side-South Side,81954,,09/18/2017,07/20/2017,3061989,3023220006,3051900,"(40.71663531, -73.95442576)",LINK-021292,New Site,06/08/2017,
12/14/2017,bk-02-GF33315,40.69349,-73.98104,Brooklyn,C2-4,35,302,176 MYRTLE AVENUE,HUDSON WALK,FLEET PLACE,SW,11201,Myrtle Avenue Brooklyn,Yes,0,Fort Greene,82348,,02/12/2018,12/06/2017,3420464,3020610110,3003100,"(40.69349099, -73.98104361)",LINK-021251,New Site,10/02/2017,
12/14/2017,bk-02-GF33379,40.69471,-73.98401,Brooklyn,C6-1A,33,302,116 DUFFIELD STREET,TECH PLACE,MYRTLE AVENUE,SW,11201,MetroTech,Yes,0,DUMBO-Vinegar Hill-Downtown Brooklyn-Boerum Hill,82337,,02/12/2018,12/06/2017,3058187,3020470011,3001500,"(40.69471214, -73.98401373)",LINK-021315,New Site,09/25/2017,
12/05/2017,bk-06-GF33358,40.67316,-73.98939,Brooklyn,C8-2,39,306,411 3 AVENUE,3 AVENUE,4 AVENUE,SE,11215,,No,0,Park Slope-Gowanus,82191,,02/03/2018,12/01/2017,3337624,3009920007,3011900,"(40.67315942, -73.98938754)",LINK-021294,New Site,08/16/2017,
12/14/2017,bk-02-GF33317,40.69334,-73.97924,Brooklyn,C2-4,35,302,218 MYRTLE AVENUE,MYRTLE AVENUE,WILLOUGHBY STREET,SW,11201,Myrtle Avenue Brooklyn,Yes,0,Fort Greene,82356,,02/12/2018,12/06/2017,3398440,3020610101,3003100,"(40.69333576, -73.97924448)",LINK-021253,New Site,10/02/2017,
11/16/2017,bk-01-GF33320,40.70424,-73.93015,Brooklyn,M1-1,34,301,1053 FLUSHING AVENUE,VANDERVOORT PLACE,NOLL STREET,N,11237,,No,0,Bushwick North,82303,,01/15/2018,11/06/2017,3251816,3030130035,3045300,"(40.70424, -73.93015)",LINK-021256,New Site,09/07/2017,
12/14/2017,bk-02-GF33360,40.68675,-73.98001,Brooklyn,C6-4,33,302,359 SCHERMERHORN STREET,LAFAYETTE AVENUE,NEVINS STREET,NW,11217,Court-Livingston-Schermerhorn,Yes,0,DUMBO-Vinegar Hill-Downtown Brooklyn-Boerum Hill,82425,,02/12/2018,12/06/2017,3418263,3001670013,3003700,"(40.68674526, -73.98000538)",LINK-021296,New Site,10/11/2017,
12/05/2017,bk-06-GF33359,40.67616,-73.98684,Brooklyn,M1-2,39,306,172-192 1 STREET,3 AVENUE,WHITWELL PLACE,,11215,,No,0,Park Slope-Gowanus,82192,,02/03/2018,12/01/2017,3393113,3009680001,3011900,"(40.67615958, -73.98684459)",LINK-021295,New Site,08/16/2017,
11/16/2017,bk-01-GF33361,40.70620,-73.95174,Brooklyn,C8-2,33,301,460 BROADWAY,PENN STREET,RUTLEDGE STREET,SW,11211,,No,0,Williamsburg,82220,,01/15/2018,11/06/2017,3060699,3022210023,3052900,"(40.7062026098406, -73.95174243303416)",LINK-021297,New Site,08/21/2017,
11/16/2017,bk-01-GF33232,40.70390,-73.93102,Brooklyn,M1-1,34,301,1031 FLUSHING AVENUE,MORGAN AVENUE,WILSON AVENUE,N,11237,,No,0,Bushwick North,82306,,01/15/2018,11/06/2017,3070735,3030120032,3045300,"(40.70390092, -73.93101777)",LINK-021168,New Site,09/07/2017,
12/14/2017,bk-02-GF33339,40.68985,-73.98293,Brooklyn,C6-4.5,33,302,4 BOND STREET,FULTON STREET,DEKALB AVENUE,NW,11201,Fulton Mall,Yes,0,Fort Greene,82331,,02/12/2018,12/06/2017,3000367,3001490034,3003300,"(40.68984589, -73.98293119)",LINK-021275,New Site,09/25/2017,
07/20/2017,bk-01-GF33231,40.72134,-73.95619,Brooklyn,M1-2/R6A,33,301,34 BERRY STREET,NORTH 12 STREET,NORTH 11 STREET,,11249,,No,0,North Side-South Side,81937,,09/18/2017,07/20/2017,3000000,3022890014,3055700,"(40.72133645, -73.95618762)",LINK-021167,New Site,05/24/2017,
12/01/2017,bk-08-GF33281,40.67830,-73.96852,Brooklyn,C1-4,35,308,631 VANDERBILT AVENUE,ST MARKS AVENUE,PROSPECT PLACE,SE,11238,,No,1,Prospect Heights,82289,,01/30/2018,10/11/2017,3028486,3011520011,3020500,"(40.67829848, -73.96852043)",LINK-021217,New Site,09/07/2017,
12/14/2017,bk-02-GF33340,40.68990,-73.98213,Brooklyn,C6-4.5,33,302,14 DEKALB AVENUE,FLATBUSH AVENUE,BOND AVENUE,MIDBLOCK,11201,Fulton Mall,Yes,0,Fort Greene,82332,,02/12/2018,12/06/2017,3000361,3001490026,3003300,"(40.68990178, -73.98212603)",LINK-021276,New Site,09/25/2017,
12/01/2017,bk-08-GF33290,40.67697,-73.96922,Brooklyn,C1-4,35,308,646 VANDERBILT AVENUE,PARK PLACE,PROSPECT PLACE,NW,11238,,No,0,Prospect Heights,82245,,01/30/2018,10/11/2017,3028742,3011580047,3016300,"(40.67696646, -73.9692235)",LINK-021226,New Site,08/25/2017,
12/14/2017,bk-02-GF33345,40.69571,-73.98328,Brooklyn,C6-4,35,302,280 GOLD STREET,TILLARY STREET,JOHNSON STREET,SW,11201,,No,0,DUMBO-Vinegar Hill-Downtown Brooklyn-Boerum Hill,82355,,02/12/2018,12/06/2017,3000251,3001330017,3001500,"(40.69571267, -73.98328139)",LINK-021281,New Site,10/02/2017,
10/13/2017,bk-12-GF33235,40.63892,-73.96903,Brooklyn,C8-2,40,312,922 CORTELYOU ROAD,EAST 9 STREET,CONEY ISLAND AVENUE,SW,11218,,No,0,Kensington-Ocean Parkway,82264,,12/12/2017,10/04/2017,3126899,3053930007,3049200,"(40.63892264, -73.96903112)",LINK-021171,New Site,08/30/2017,
07/20/2017,bk-01-GF33342,40.72083,-73.96097,Brooklyn,M1-2/R6A,33,301,49 NORTH 8 STREET,KENT AVENUE,WYTHE AVENUE,,11249,,No,0,North Side-South Side,81962,,09/18/2017,07/20/2017,3392233,3023097501,3055700,"(40.72083262, -73.96096999)",LINK-021278,New Site,06/08/2017,
12/05/2017,bk-06-GF33347,40.67495,-73.98784,Brooklyn,C8-2,39,306,232 3 STREET,3 AVENUE,4 AVENUE,SE,11215,,No,0,Park Slope-Gowanus,82190,,02/03/2018,12/01/2017,3337594,3009800008,3011900,"(40.67494681, -73.98783775)",LINK-021283,New Site,08/16/2017,
12/14/2017,bk-02-GF33238,40.69377,-73.99261,Brooklyn,C5-2A,33,302,75 CLINTON STREET,REMSEN STREET,MONTAGUE STREET,NE,11201,Montague Street,Yes,0,Brooklyn Heights-Cobble Hill,82342,,02/12/2018,12/06/2017,3002103,3002507501,3000900,"(40.69377414, -73.99260512)",LINK-021174,New Site,10/02/2017,
07/20/2017,bk-01-GF33300,40.71330,-73.95816,Brooklyn,C2-4,34,301,267 GRAND STREET,ROEBLING STREET,HAVEMEYER STREET,,11211,,No,0,North Side-South Side,81979,,09/18/2017,07/20/2017,3062690,3023830039,3051900,"(40.71330045, -73.95815968)",LINK-021236,New Site,06/08/2017,
12/14/2017,bk-02-GF33244,40.69490,-73.98699,Brooklyn,C6-4,33,302,80 TECH PLACE,JAY STREET,LAWRENCE STREET,SE,11201,MetroTech,Yes,0,DUMBO-Vinegar Hill-Downtown Brooklyn-Boerum Hill,82328,,02/12/2018,12/06/2017,3331745,3001420050,3001100,"(40.69490376, -73.98698984)",LINK-021180,New Site,09/25/2017,
12/14/2017,bk-02-GF33243,40.69220,-73.98763,Brooklyn,C6-4.5,33,302,34 WILLOUGHBY STREET,JAY STREET,PEARL STREET,SW,11201,Fulton Mall,Yes,0,DUMBO-Vinegar Hill-Downtown Brooklyn-Boerum Hill,82329,,02/12/2018,12/06/2017,3000375,3001500019,3001100,"(40.69219583, -73.98762662)",LINK-021179,New Site,09/25/2017,
09/21/2018,qu-07-GF44244,40.76227,-73.80409,Queens,C1-2,20,407,161-24 NORTHERN BOULEVARD,CROCHERON AVENUE,162 STREET,MIDBLOCK,11358,,No,0,Murray Hill,82609,,11/20/2018,09/12/2018,4120453,4053350073,4117100,"(40.76226923, -73.80408991)",LINK-021002,New Site,02/05/2018,
12/01/2017,qu-01-GF44295,40.75405,-73.93520,Queens,M1-2/R5D,26,401,27-19 39 AVENUE,39 AVENUE,38 AVENUE,NW,11101,,No,0,Queensbridge-Ravenswood-Long Island City,82143,,01/30/2018,11/29/2017,4004690,4003860029,4003100,"(40.75405384, -73.93519779)",LINK-021053,New Site,08/10/2017,
01/19/2018,qu-03-GF44257,40.75788,-73.85812,Queens,C2-4,21,403,111-12 NORTHERN BOULEVARD,111 STREET,112 STREET,MIDBLOCK,11368,,No,0,North Corona,82442,,03/20/2018,12/06/2017,4042861,4017260005,4038100,"(40.75787918, -73.85812129)",LINK-021015,New Site,10/19/2017,
09/21/2018,qu-07-GF44184,40.76414,-73.82596,Queens,C1-2,20,407,36-0 BROWNE STREET,NORTHERN BOULEVARD,37 AVENUE,SW,11354,,No,0,Flushing,82633,,11/20/2018,09/12/2018,4113292,4050020001,4086500,"(40.764137939670746, -73.82595871232104)",LINK-020942,New Site,03/12/2018,
07/21/2017,qu-01-GF44228,40.75995,-73.91403,Queens,C1-2,22,401,43-19 31 AVENUE,44 STREET,43 STREET,NW,11103,,No,0,Astoria,82030,,09/19/2017,07/21/2017,4011959,4006970002,4014900,"(40.75995239, -73.91403229)",LINK-020986,New Site,07/05/2017,
07/19/2017,qu-03-GF44276,40.75496,-73.89016,Queens,C8-1,25,403,76-02 NORTHERN BOULEVARD,77 STREET,76 STREET,,11372,,No,0,Jackson Heights,81992,,09/17/2017,07/19/2017,4028766,4012490001,4028700,"(40.75495759, -73.89016359)",LINK-021034,New Site,06/21/2017,
12/01/2017,qu-01-GF44230,40.77543,-73.91450,Queens,C1-3,22,401,28-02 23 AVENUE,28 STREET,29 STREET,SE,11105,,No,0,Steinway,82459,,01/30/2018,11/29/2017,4017543,4008430035,4011500,"(40.775434, -73.914498)",LINK-020988,New Site,10/23/2017,
12/01/2017,qu-01-GF44233,40.77649,-73.91577,Queens,C1-3,22,401,26-01 23 AVENUE,26 STREET,27 STREET,NE,11105,,No,0,Steinway,82461,,01/30/2018,11/29/2017,4018219,4008560102,4010100,"(40.77649223, -73.91577131)",LINK-020991,New Site,10/23/2017,
08/11/2017,qu-02-GF44237,40.74606,-73.95289,Queens,C1-5,26,402,46-29 VERNON BOULEVARD,46 ROAD,47 AVENUE,SE,11101,,No,0,Hunters Point-Sunnyside-West Maspeth,82042,,10/10/2017,08/10/2017,4000375,4000470048,4000700,"(40.74606, -73.952887)",LINK-020995,New Site,07/12/2017,
09/21/2018,qu-07-GF44194,40.76373,-73.80837,Queens,C1-2,20,407,40-04 157 STREET,NORTHERN BOULEVARD,DEPOT ROAD,SW,11354,,No,0,Murray Hill,82615,,11/20/2018,09/12/2018,4119330,4052750031,4117100,"(40.76373479, -73.80837022)",LINK-020952,New Site,02/05/2018,
09/21/2018,qu-07-GF44193,40.76444,-73.81054,Queens,C2-2,20,407,154-10 NORTHERN BOULEVARD,154 STREET,155 STREET,SW,11354,,No,0,Murray Hill,82604,,11/20/2018,09/12/2018,4119238,4052680028,4117100,"(40.76444109473339, -73.81053669618632)",LINK-020951,New Site,02/05/2018,
11/03/2017,qu-02-GF44196,40.74438,-73.91442,Queens,C1-4,26,402,50-15 ROOSEVELT AVENUE,50 STREET,51 STREET,SW,11377,,No,0,Hunters Point-Sunnyside-West Maspeth,82451,,01/02/2018,11/09/2017,4001288,4001380024,4025302,"(40.74437992413807, -73.91441854312274)",LINK-020954,New Site,10/11/2017,
10/02/2017,qu-01-GF44286,40.75216,-73.93565,Queens,M1-2/R5D,26,401,40-03 29 STREET,40 AVENUE,40 ROAD,SE,11101,,No,0,Queensbridge-Ravenswood-Long Island City,82140,,12/01/2017,09/20/2017,4000000,4004020025,4003100,"(40.7521616, -73.93564666)",LINK-021044,New Site,08/10/2017,
01/19/2018,qu-03-GF44243,40.75780,-73.86446,Queens,C2-4,21,403,104-1 NORTHERN BOULEVARD,104 STREET,105 STREET,NE,11369,,No,0,East Elmhurst,82440,,03/20/2018,12/06/2017,4042095,4016990043,4036500,"(40.75779522, -73.86445957)",LINK-021001,New Site,10/19/2017,
09/15/2017,qu-03-GF44314,40.75500,-73.89175,Queens,C8-1,25,403,74-15 NORTHERN BOULEVARD,75 STREET,76 STREET,NE,11370,,No,0,Jackson Heights,82181,,11/14/2017,09/13/2017,4026557,4011700038,4030903,"(40.75499832, -73.89174849)",LINK-021072,New Site,08/16/2017,
10/13/2017,bk-14-GF33176,40.63985,-73.96695,Brooklyn,C2-4,40,314,367 WESTMINSTER ROAD,CORTELYOU ROAD,DORCHESTER ROAD,SE,11218,,No,0,Flatbush,82260,,12/12/2017,10/04/2017,3118636,3051550001,3052600,"(40.639846, -73.96695274)",LINK-021112,New Site,08/30/2017,
10/13/2017,bk-14-GF33174,40.64123,-73.96459,Brooklyn,C2-4,40,314,1415 CORTELYOU ROAD,MARLBOROUGH ROAD,RUGBY ROAD,NW,11226,,No,0,Flatbush,82233,,12/12/2017,10/04/2017,3118399,3051450070,3152200,"(40.64122622, -73.96458565)",LINK-021110,New Site,08/25/2017,
01/19/2018,qu-07-GF44316,40.75727,-73.83412,Queens,C4-2,20,407,4022 COLLEGE POINT BOULEVARD,40 ROAD,ROOSEVELT AVENUE,NW,11354,,No,0,Flushing,82486,,03/20/2018,12/06/2017,4539469,4050667501,4087100,"(40.75726607, -73.83412218)",LINK-021074,New Site,11/06/2017,
07/19/2017,qu-03-GF44315,40.75486,-73.89106,Queens,C8-1,25,403,75-20 NORTHERN BOULEVARD,76 STREET,75 STREET,,11372,,No,0,Jackson Heights,81995,,09/17/2017,07/19/2017,4544982,4012480005,4028900,"(40.754857, -73.891065)",LINK-021073,New Site,06/21/2017,
08/11/2017,qu-02-GF44317,40.74426,-73.95117,Queens,M1-4/R7A,26,402,47-28 11 STREET,47 ROAD,48 AVENUE,SW,11101,,No,0,Hunters Point-Sunnyside-West Maspeth,82044,,10/10/2017,08/10/2017,4607791,4000457502,4000700,"(40.744259, -73.951174)",LINK-021075,New Site,07/12/2017,
07/20/2017,bk-01-GF33184,40.71870,-73.95923,Brooklyn,C2-4,33,301,120 NORTH 7 STREET,BERRY STREET,WYTHE AVENUE,,11249,,No,0,North Side-South Side,81929,,09/18/2017,07/20/2017,3392439,3023267501,3055500,"(40.7187031, -73.95922842)",LINK-021120,New Site,05/24/2017,
08/11/2017,qu-02-GF44319,40.74586,-73.95065,Queens,M1-4/R7A,26,402,46-10 11 STREET,46 ROAD,46 AVENUE,NW,11101,,No,0,Hunters Point-Sunnyside-West Maspeth,82043,,10/10/2017,08/10/2017,4435522,4000480025,4000700,"(40.745862, -73.950646)",LINK-021077,New Site,07/12/2017,
11/16/2017,bk-04-GF33189,40.69572,-73.93286,Brooklyn,C2-3,34,304,1013 BROADWAY,WILLOUGHBY AVENUE,SUYDAM STREET,NE,11221,,No,0,Bushwick South,82310,,01/15/2018,11/06/2017,3072828,3032040008,3039300,"(40.69572196, -73.93286182)",LINK-021125,New Site,09/15/2017,
09/21/2018,qu-07-GF44328,40.76369,-73.82852,Queens,C4-3,20,407,137-72 NORTHERN BOULEVARD,LEAVITT STREET,UNION STREET,SW,11354,,No,0,Flushing,82636,,11/20/2018,09/12/2018,4112353,4049770050,4086900,"(40.763686822487266, -73.82852007432388)",LINK-021086,New Site,04/02/2018,
09/21/2018,qu-07-GF44263,40.76402,-73.82704,Queens,C1-2,20,407,138-18 NORTHERN BOULEVARD,UNION STREET,BOWNE STREET,SE,11354,,No,0,Flushing,82610,,11/20/2018,09/12/2018,4113291,4050100028,4086500,"(40.76402168, -73.82703601)",LINK-021021,New Site,02/05/2018,
09/21/2018,qu-07-GF44266,40.76468,-73.82420,Queens,C1-2,20,407,141-43 NORTHERN BOULEVARD,PARSONS BOULEVARD,BOWNE STREET,NW,11354,,No,0,Flushing,82634,,11/20/2018,09/12/2018,4113394,4050120037,4116100,"(40.764682365166756, -73.82420213620446)",LINK-021024,New Site,03/12/2018,
09/21/2018,qu-07-GF44265,40.76438,-73.82490,Queens,C1-2,20,407,141-10 NORTHERN BOULEVARD,BOWNE STREET,PARSONS BOULEVARD,SW,11354,,No,0,Flushing,82616,,11/20/2018,09/12/2018,4113393,4050120033,4086500,"(40.76437509, -73.82490499)",LINK-021023,New Site,02/13/2018,
09/21/2018,qu-07-GF44267,40.76464,-73.82272,Queens,C1-2,20,407,144-10 NORTHERN BOULEVARD,PARSONS BOULEVARD,146 STREET,SE,11354,,No,0,Murray Hill,82612,,11/20/2018,09/12/2018,4113419,4050140009,4116300,"(40.76463751, -73.82271713)",LINK-021025,New Site,02/05/2018,
11/03/2017,qu-02-GF44307,40.74374,-73.95150,Queens,M1-4/R7A,26,402,18902 48 AVENUE,11 STREET,VERNON BOUELVARD,NW,11101,,No,0,Hunters Point-Sunnyside-West Maspeth,82048,,01/02/2018,11/09/2017,4000280,4000450022,4000700,"(40.74374245, -73.95149661)",LINK-021065,New Site,07/12/2017,
11/16/2017,bk-01-GF33172,40.70213,-73.93699,Brooklyn,M1-1,34,301,455 BUSHWICK AVENUE,COOK STREET,FLUSHING AVENUE,NE,11206,,No,0,Bushwick South,82286,,01/15/2018,11/06/2017,3000000,3031230002,3048500,"(40.70212685, -73.93698638)",LINK-021108,New Site,09/07/2017,
09/21/2018,qu-07-GF44272,40.76514,-73.81855,Queens,C1-2,20,407,147-20 NORTHERN BOULEVARD,147 STREET,149 STREET,MIDBLOCK,11354,,No,0,Murray Hill,82619,,11/20/2018,09/12/2018,4113528,4050160027,4116300,"(40.76513748, -73.81855277)",LINK-021030,New Site,02/13/2018,
08/11/2017,qu-02-GF44309,40.74655,-73.95041,Queens,M1-4/R6B,26,402,45-46 11 STREET,46 AVENUE,45 ROAD,SW,11101,,No,0,Hunters Point-Sunnyside-West Maspeth,82046,,10/10/2017,08/10/2017,4000401,4000490021,4000700,"(40.746551, -73.950413)",LINK-021067,New Site,07/12/2017,
09/21/2018,qu-07-GF44271,40.76479,-73.82146,Queens,C1-2,20,407,144-50 NORTHERN BOULEVARD,PARSONS BOULEVARD,146 STREET,SW,11354,,No,0,Murray Hill,82613,,11/20/2018,09/12/2018,4113423,4050140023,4116300,"(40.76478864, -73.82145813)",LINK-021029,New Site,02/05/2018,
08/11/2017,qu-02-GF44308,40.74518,-73.95087,Queens,M1-4/R7A,26,402,46-48 11 STREET,47 AVENUE,46 ROAD,NW,11101,,No,0,Hunters Point-Sunnyside-West Maspeth,82047,,10/10/2017,08/10/2017,4436608,4000477501,4000700,"(40.745179, -73.950868)",LINK-021066,New Site,07/12/2017,
08/31/2017,BX-05-GF22074,40.85798,-73.90191,Bronx,C1-4,14,205,2276 MORRIS AVENUE,EAST 183 STREET,EAST 182 STREET,,10453,,No,0,Fordham South,82025,,10/30/2017,08/22/2017,2013866,2031710019,2023704,"(40.85797839, -73.90191357)",LINK-020503,New Site,07/05/2017,
08/31/2017,BX-05-GF22073,40.85824,-73.90281,Bronx,C1-4,14,205,48 EAST 183 STREET,EAST 182 STREET,EAST 183 STREET,,10453,,No,0,Fordham South,82029,,10/30/2017,08/22/2017,2013991,2031820028,2023900,"(40.8582355, -73.90280539)",LINK-020502,New Site,07/05/2017,
08/31/2017,BX-05-GF22095,40.85929,-73.90675,Bronx,C1-4,14,205,80 WEST 183 STREET,AQUEDUCT AVENUE,GRAND AVENUE,,10453,,No,0,University Heights-Morris Heights,82024,,10/30/2017,08/22/2017,2014528,2032080036,2025100,"(40.85929432, -73.90674765)",LINK-020524,New Site,07/05/2017,
08/31/2017,BX-01-GF22094,40.81331,-73.92265,Bronx,C2-4,8,201,2686 3 AVENUE,EAST 143 STREET,EAST 144 STREET,NE,10454,,No,0,Mott Haven-Port Morris,82085,,10/30/2017,08/22/2017,2000650,2023060001,2004100,"(40.81330565, -73.92265486)",LINK-020523,New Site,07/28/2017,
08/31/2017,BX-01-GF22103,40.81197,-73.92533,Bronx,C2-4,8,201,2604 3 AVENUE,EAST 140 STREET,EAST 141 STREET,NE,10454,,No,0,Mott Haven-Port Morris,82093,,10/30/2017,08/22/2017,2000732,2023150001,2003900,"(40.81197078, -73.92532519)",LINK-020532,New Site,07/28/2017,
08/31/2017,BX-01-GF22102,40.81514,-73.91954,Bronx,C2-4,8,201,2793 3 AVENUE,EAST 147 STREET,EAST 148 STREET,NW,10455,,No,0,Melrose South-Mott Haven North,82087,,10/30/2017,08/22/2017,2000843,2023270031,2006500,"(40.81514244, -73.91953608)",LINK-020531,New Site,07/28/2017,
08/31/2017,BX-01-GF22122,40.81155,-73.92615,Bronx,C2-4,8,201,2576 3 AVENUE,EAST 139 STREET,EAST 140 STREET,NE,10454,,No,0,Mott Haven-Port Morris,82103,,10/30/2017,08/22/2017,2091105,2023140047,2003900,"(40.81154508, -73.92615137)",LINK-020551,New Site,07/28/2017,
08/31/2017,BX-01-GF22104,40.81362,-73.92213,Bronx,C2-4,8,201,2704 3 AVENUE,EAST 144 STREET,EAST 143 STREET,SE,10454,,No,0,Mott Haven-Port Morris,82090,,10/30/2017,08/22/2017,2000655,2023060008,2004100,"(40.81361896, -73.92212686)",LINK-020533,New Site,07/28/2017,
08/31/2017,BX-01-GF22124,40.81273,-73.92384,Bronx,C2-4,8,201,2640 3 AVENUE,EAST 142 STREET,EAST 141 STREET,SW,10454,,No,0,Mott Haven-Port Morris,82105,,10/30/2017,08/22/2017,2000752,2023150030,2004100,"(40.81273436, -73.923843)",LINK-020553,New Site,07/28/2017,
08/31/2017,BX-01-GF22123,40.81235,-73.92445,Bronx,C2-4,8,201,2628 3 AVENUE,3 AVENUE,ALEXANDER AVENUE,NE,10454,,No,0,Mott Haven-Port Morris,82104,,10/30/2017,08/22/2017,2000748,2023150025,2004100,"(40.81234863, -73.92444856)",LINK-020552,New Site,07/28/2017,
08/31/2017,BX-01-GF22125,40.81406,-73.92126,Bronx,C2-4,8,201,2712 3 AVENUE,EAST 145 STREET,EAST 144 STREET,SE,10454,,No,0,Mott Haven-Port Morris,82106,,10/30/2017,08/22/2017,2117376,2023060054,2004300,"(40.81406213, -73.92126362)",LINK-020554,New Site,07/28/2017,
07/20/2017,bk-01-146085,40.71471,-73.96652,Brooklyn,M3-1,33,301,33 SOUTH 2 STREET,KENT AVENUE,WYTHE AVENUE,NE,11249,,No,0,North Side-South Side,81956,01/16/2018 12:00:00 AM,09/18/2017,07/20/2017,3062886,3024030001,3055100,"(40.71470734, -73.96652497)",LINK-021303,New Site,06/08/2017,01/08/2018
02/14/2017,si-02-146098,40.58949,-74.10127,Staten Island,C1-1,50,502,1660 RICHMOND ROAD,BUEL AVENUE,LIBERTY AVENUE,NE,10304,,No,0,Old Town-Dongan Hills-South Beach,81709,04/11/2018 12:00:00 AM,04/15/2017,02/14/2017,5050551,5035300001,5011401,"(40.58948831, -74.10127071)",LINK-018411,New Site,09/16/2016,04/21/2017
04/15/2016,bx-04-145687,40.83154,-73.92264,Bronx,C1-4,8,204,1049 GERARD AVENUE,EAST 165 STREET,EAST 164 STREET,SW,10452,,No,0,West Concourse,81371,06/30/2016 12:00:00 AM,06/14/2016,04/15/2016,2002938,2024770015,2019500,"(40.831543, -73.92264499)",LINK-005435,New Site,,04/14/2016
04/15/2016,bx-07-145690,40.86704,-73.89654,Bronx,C1-3,14,207,30 EAST KINGSBRIDGE ROAD,MORRIS AVENUE,JEROME AVENUE,SW,10468,,No,0,Bedford Park-Fordham North,81349,07/06/2016 12:00:00 AM,06/14/2016,04/15/2016,2014144,2031910043,2040100,"(40.867038, -73.896537)",LINK-005579,New Site,,04/14/2016
02/14/2017,si-02-146099,40.57739,-74.10267,Staten Island,C2-1,50,502,2154 HYLAN BOULEVARD,ZWICKY AVENUE,MIDLAND AVENUE,SE,10306,,No,0,New Dorp-Midland Beach,81719,04/11/2018 12:00:00 AM,04/15/2017,02/14/2017,5053558,5036910011,5011202,"(40.57739083, -74.10267054)",LINK-005418,New Site,10/05/2016,04/21/2017
04/15/2016,bx-01-145688,40.81889,-73.92921,Bronx,M1-4/R8A,17,201,518 GERARD AVENUE,EAST 149 STREET,EAST 148 STREET,SE,10451,,No,0,West Concourse,81357,06/30/2016 12:00:00 AM,06/14/2016,04/15/2016,2001091,2023500039,2006300,"(40.81888599, -73.92921294)",LINK-005422,New Site,,04/14/2016
04/15/2016,bx-07-145689,40.86659,-73.89565,Bronx,C1-3,14,207,60 EAST KINGSBRIDGE ROAD,CRESTON AVENUE,MORRIS AVENUE,SW,10468,,No,0,Bedford Park-Fordham North,81352,06/30/2016 12:00:00 AM,06/14/2016,04/15/2016,2094669,2031770031,2040100,"(40.86658827, -73.89565372)",LINK-005582,New Site,,04/14/2016
11/30/2016,bk-03-GF3096,40.67883,-73.91975,Brooklyn,C2-4,41,303,1915 FULTON STREET,HOWARD AVENUE,,,11233,,No,0,Stuyvesant Heights,81534,,01/29/2017,11/30/2016,3041574,3015300005,3037900,"(40.67883198, -73.91975229)",LINK-018125,New Site,08/23/2016,
10/05/2016,BX-05-GF2048,40.85297,-73.90480,Bronx,C1-4,14,205,125 EAST BURNSIDE AVENUE,MORRIS AVENUE,CRESTON AVENUE,,10453,,No,0,Mount Hope,81641,,12/04/2016,10/05/2016,2013846,2031690059,2024100,"(40.85297, -73.9048)",LINK-018396,New Site,09/28/2016,
11/30/2016,si-02-GF5026,40.57158,-74.10882,Staten Island,C8-1,50,502,2445 HYLAN BOULEVARD,BACHE AVENUE,JACQUES AVENUE,,10306,,No,0,New Dorp-Midland Beach,81700,,01/29/2017,11/30/2016,5052856,5036480057,5012200,"(40.57157581, -74.10882191)",LINK-018380,New Site,09/16/2016,
